[
  { "name": "Abam-Nsulu", "post_code": "453109" },
  { "name": "Abam-Nsuluamapa", "post_code": "453109" },
  { "name": "Alaoji", "post_code": "453109" },
  { "name": "Amauvuru", "post_code": "453109" },
  { "name": "Amorji", "post_code": "453109" },
  { "name": "Ehere", "post_code": "453109" },
  { "name": "Eziama", "post_code": "453109" },
  { "name": "Iferefe", "post_code": "453109" },
  { "name": "Ikpakiri", "post_code": "453109" },
  { "name": "Ntigha", "post_code": "453109" },
  { "name": "Obeala", "post_code": "453109" },
  { "name": "Obete-Nchima", "post_code": "453109" },
  { "name": "Ohanze", "post_code": "453109" },
  { "name": "Okpuama-Uku", "post_code": "453109" },
  { "name": "Okpuama-Uku", "post_code": "453109" },
  { "name": "Okuenyi", "post_code": "453109" },
  { "name": "Osusu Amaukwa", "post_code": "453109" },
  { "name": "Owohia", "post_code": "453109" },
  { "name": "Umuafor", "post_code": "453109" },
  { "name": "Umuaguma", "post_code": "453109" },
  { "name": "Umuali", "post_code": "453109" },
  { "name": "Umuguru", "post_code": "453109" },
  { "name": "Umuochoi", "post_code": "453109" },
  { "name": "Umuogele", "post_code": "453109" },
  { "name": "Umuokahia", "post_code": "453109" },
  { "name": "Umuokoroata", "post_code": "453109" },
  { "name": "Umuola Egbelu", "post_code": "453109" },
  { "name": "Umuorukwu", "post_code": "453109" },
  { "name": "Street/Location", "post_code": "Postcode" },
  { "name": "Abala-Nkwonwelechi", "post_code": "453102" },
  { "name": "Ayaba-Ubi", "post_code": "453102" },
  { "name": "Iheorji", "post_code": "453102" },
  { "name": "Obikabia", "post_code": "453102" },
  { "name": "Ohuru-Amaige", "post_code": "453102" },
  { "name": "Ohuru-Amangwo", "post_code": "453102" },
  { "name": "Ohuru-Umuekwesu", "post_code": "453102" },
  { "name": "Osaokea", "post_code": "453102" },
  { "name": "Osusu-Umukpegh", "post_code": "453102" },
  { "name": "Umuagu", "post_code": "453102" },
  { "name": "Umuariama", "post_code": "453102" },
  { "name": "Umuelendu", "post_code": "453102" },
  { "name": "Umueme", "post_code": "453102" },
  { "name": "Umuibe", "post_code": "453102" },
  { "name": "Umukalika", "post_code": "453102" },
  { "name": "Umunwankwo", "post_code": "453102" },
  { "name": "Umuohia", "post_code": "453102" },
  { "name": "Umuojima", "post_code": "453102" },
  { "name": "Umuokea", "post_code": "453102" },
  { "name": "Umuonyengwa", "post_code": "453102" },
  { "name": "Street/Location", "post_code": "Postcode" },
  { "name": "Akpa-Mbator", "post_code": "453106" },
  { "name": "Amairingbua-Ovom I", "post_code": "453106" },
  { "name": "Amasa-Ovom", "post_code": "453106" },
  { "name": "Location/Street", "post_code": "Postcode" },
  { "name": "Agbaragwu", "post_code": "453106" },
  { "name": "Agburuke", "post_code": "453106" },
  { "name": "Agburuke-Isiugwu", "post_code": "453106" },
  { "name": "Akanu-Afagha", "post_code": "453106" },
  { "name": "Akanu-Okpulo", "post_code": "453106" },
  { "name": "Akpuga", "post_code": "453106" },
  { "name": "Amapu", "post_code": "453106" },
  { "name": "Amuzu", "post_code": "453106" },
  { "name": "Avor", "post_code": "453106" },
  { "name": "Aziama", "post_code": "453106" },
  { "name": "Ikala-Umudagwu", "post_code": "453106" },
  { "name": "Isiahia", "post_code": "453106" },
  { "name": "Itu-Ngwa", "post_code": "453106" },
  { "name": "Itukpa", "post_code": "453106" },
  { "name": "Mbutu", "post_code": "453106" },
  { "name": "Mgboko-Osa", "post_code": "453106" },
  { "name": "Mgboko-Umu-Ora", "post_code": "453106" },
  { "name": "Osa", "post_code": "453106" },
  { "name": "Owo-Ahiafor", "post_code": "453106" },
  { "name": "Umuaforkwu", "post_code": "453106" },
  { "name": "Umuagada/umueijioke", "post_code": "453106" },
  { "name": "Umuagwa", "post_code": "453106" },
  { "name": "Umuagwula", "post_code": "453106" },
  { "name": "Umuakoma", "post_code": "453106" },
  { "name": "Umudim", "post_code": "453106" },
  { "name": "Umuechi", "post_code": "453106" },
  { "name": "Umueijioke", "post_code": "453106" },
  { "name": "Umueke", "post_code": "453106" },
  { "name": "Umuezigbe", "post_code": "453106" },
  { "name": "Umugwuma", "post_code": "453106" },
  { "name": "Umuibe", "post_code": "453106" },
  { "name": "Umujaghari", "post_code": "453106" },
  { "name": "Umulelu", "post_code": "453106" },
  { "name": "Umumagberugo", "post_code": "453106" },
  { "name": "Umuobasi", "post_code": "453106" },
  { "name": "Umuobiakwa", "post_code": "453106" },
  { "name": "Umuoji", "post_code": "453106" },
  { "name": "Umuokatawom", "post_code": "453106" },
  { "name": "Umuomegbi", "post_code": "453106" },
  { "name": "Umuoru", "post_code": "453106" },
  { "name": "Umusoiku-Ete-na-Onuma", "post_code": "453106" },
  { "name": "Location/street", "post_code": "Postcode" },
  { "name": "Abala-Ibeme", "post_code": "453110" },
  { "name": "Abala-Nkomiri", "post_code": "453110" },
  { "name": "Ahiaka", "post_code": "453110" },
  { "name": "Oberete", "post_code": "453110" },
  { "name": "Obete-Uku", "post_code": "453110" },
  { "name": "Obete-Umodu", "post_code": "453110" },
  { "name": "Obete-Umuoha", "post_code": "453110" },
  { "name": "Ohanze-Agwo", "post_code": "453110" },
  { "name": "Location/street", "post_code": "Postcode" },
  { "name": "Agbaragwu", "post_code": "453101" },
  { "name": "Agburuke-Isiugwu", "post_code": "453101" },
  { "name": "Akanu-Afagha", "post_code": "453101" },
  { "name": "Akanu-Okpulo", "post_code": "453101" },
  { "name": "Akpuga", "post_code": "453101" },
  { "name": "Avor", "post_code": "453101" },
  { "name": "Azaima", "post_code": "453101" },
  { "name": "Azuogwugwu", "post_code": "453101" },
  { "name": "Ekwereazu-Ngwa", "post_code": "453101" },
  { "name": "Ichi", "post_code": "453101" },
  { "name": "Ikala-Umudagwu", "post_code": "453101" },
  { "name": "Isiko", "post_code": "453101" },
  { "name": "Itu-Ikila", "post_code": "453101" },
  { "name": "Itu-Ngwa I", "post_code": "453101" },
  { "name": "Itu-Ngwa II", "post_code": "453101" },
  { "name": "Itukpa", "post_code": "453101" },
  { "name": "Mbutu", "post_code": "453101" },
  { "name": "Mgboko-Amaku", "post_code": "453101" },
  { "name": "Mgboko-Anya", "post_code": "453101" },
  { "name": "Mgboko-Okpulo", "post_code": "453101" },
  { "name": "Mgboko-Umu-Ora", "post_code": "453101" },
  { "name": "Mgboko-Umuezi", "post_code": "453101" },
  { "name": "Mgboko-Umuoba", "post_code": "453101" },
  { "name": "Nenu", "post_code": "453101" },
  { "name": "Ntigha-Umuaro", "post_code": "453101" },
  { "name": "Obete", "post_code": "453101" },
  { "name": "Ofokobe", "post_code": "453101" },
  { "name": "Osa I", "post_code": "453101" },
  { "name": "Umoma", "post_code": "453101" },
  { "name": "Umuanunu", "post_code": "453101" },
  { "name": "Umuaro", "post_code": "453101" },
  { "name": "Umuhu-Aba", "post_code": "453101" },
  { "name": "Umuikeaba", "post_code": "453101" },
  { "name": "Umukiri", "post_code": "453101" },
  { "name": "Umukpi", "post_code": "453101" },
  { "name": "Umulelu", "post_code": "453101" },
  { "name": "Umuobasi", "post_code": "453101" },
  { "name": "Umuocha", "post_code": "453101" },
  { "name": "Umuokahia", "post_code": "453101" },
  { "name": "Umuomaghi", "post_code": "453101" },
  { "name": "Umuopara-Amuzu", "post_code": "453101" },
  { "name": "Umuopara-Egbelu", "post_code": "453101" },
  { "name": "Umuotu", "post_code": "453101" },
  { "name": "Umusoiku-Ete-na-Onuma", "post_code": "453101" },
  { "name": "Umuwezi", "post_code": "453101" },
  { "name": "Agboji", "post_code": "442110" },
  { "name": "Amaba", "post_code": "442110" },
  { "name": "Amaeke", "post_code": "442110" },
  { "name": "Amanta", "post_code": "442110" },
  { "name": "Amogudu", "post_code": "442110" },
  { "name": "Amoke", "post_code": "442110" },
  { "name": "Abayi-Amaugwu", "post_code": "453117" },
  { "name": "Ayaba-Umueze", "post_code": "453117" },
  { "name": "Umubgasi", "post_code": "453117" },
  { "name": "Umuchchi", "post_code": "453117" },
  { "name": "Umuchlegbu", "post_code": "453117" },
  { "name": "Umule", "post_code": "453117" },
  { "name": "Umuocham", "post_code": "453117" },
  { "name": "Umuode", "post_code": "453117" },
  { "name": "Umuodu-Isiyi", "post_code": "453117" },
  { "name": "Umuoru", "post_code": "453117" },
  { "name": "Amangu", "post_code": "442113" },
  { "name": "Amuma", "post_code": "442113" },
  { "name": "Amungu", "post_code": "442113" },
  { "name": "Ofiele", "post_code": "442113" },
  { "name": "Amaogwuawu", "post_code": "453115" },
  { "name": "Amapu", "post_code": "453115" },
  { "name": "Amuzu", "post_code": "453115" },
  { "name": "Ibeku", "post_code": "453115" },
  { "name": "Mbutunta", "post_code": "453115" },
  { "name": "Umuagwu", "post_code": "453115" },
  { "name": "Umuihima", "post_code": "453115" },
  { "name": "Umuihioma", "post_code": "453115" },
  { "name": "Umuiimo-Osisiasa", "post_code": "453115" },
  { "name": "Umuimo-Amaogwuawu", "post_code": "453115" },
  { "name": "Umuimo-Egbelu", "post_code": "453115" },
  { "name": "Umuobasi", "post_code": "453115" },
  { "name": "Osiloji", "post_code": "453118" },
  { "name": "Umudaba", "post_code": "453118" },
  { "name": "Umuekpe", "post_code": "453118" },
  { "name": "Umunankwoala", "post_code": "453118" },
  { "name": "Umuokoroche", "post_code": "453118" },
  { "name": "Umuoriaku", "post_code": "453118" },
  { "name": "Umuorika", "post_code": "453118" },
  { "name": "Umuoyonta", "post_code": "453118" },
  { "name": "Obiekwesu", "post_code": "453114" },
  { "name": "Okpuala-Aro", "post_code": "453114" },
  { "name": "Umuarakpa", "post_code": "453114" },
  { "name": "Umuejie", "post_code": "453114" },
  { "name": "Umugwua", "post_code": "453114" },
  { "name": "Umukaa", "post_code": "453114" },
  { "name": "Umukai", "post_code": "453114" },
  { "name": "Umuohia", "post_code": "453114" },
  { "name": "Umuonyenkwu", "post_code": "453114" },
  { "name": "Umuotuo", "post_code": "453114" },
  { "name": "Amaekpu", "post_code": "442108" },
  { "name": "Elu", "post_code": "442108" },
  { "name": "Ndi-Uduma-Ukwu", "post_code": "442108" },
  { "name": "Ndi-Uku", "post_code": "442108" },
  { "name": "Nkwebe", "post_code": "442108" },
  { "name": "Oboro", "post_code": "442108" },
  { "name": "Okagwe", "post_code": "442108" },
  { "name": "Okoro", "post_code": "442108" },
  { "name": "Ebem", "post_code": "442109" },
  { "name": "Ihenta", "post_code": "442109" },
  { "name": "Ndi-Amogu", "post_code": "442109" },
  { "name": "Ndi-Anyaori", "post_code": "442109" },
  { "name": "Ndi-Okala", "post_code": "442109" },
  { "name": "Agbaja-Nkporo", "post_code": "442111" },
  { "name": "Amurie-Nkporo", "post_code": "442111" },
  { "name": "Eleghu-Nkporo", "post_code": "442111" },
  { "name": "Etitiana-Nkporo", "post_code": "442111" },
  { "name": "Ndi-Nko-Nkporo", "post_code": "442111" },
  { "name": "Obofia-Nkporo", "post_code": "442111" },
  { "name": "Okwoko-Nkporo", "post_code": "442111" },
  { "name": "Amuke", "post_code": "442114" },
  { "name": "Eziafor", "post_code": "442114" },
  { "name": "Ndi-Ibe", "post_code": "442114" },
  { "name": "Ndi-Orieke", "post_code": "442114" },
  { "name": "Abia", "post_code": "442115" },
  { "name": "Akanu", "post_code": "442115" },
  { "name": "Isiugwu", "post_code": "442115" },
  { "name": "Ndi-Uduma-Awoke", "post_code": "442115" },
  { "name": "Akpa 1", "post_code": "453116" },
  { "name": "Amaiyi", "post_code": "453116" },
  { "name": "Amankwu 1", "post_code": "453116" },
  { "name": "Amankwu 11", "post_code": "453116" },
  { "name": "Amaugha", "post_code": "453116" },
  { "name": "Okpalaukwu", "post_code": "453116" },
  { "name": "Umuaja", "post_code": "453116" },
  { "name": "Umuenyikwu", "post_code": "453116" },
  { "name": "Umugala", "post_code": "453116" },
  { "name": "Umuncheagu", "post_code": "453116" },
  { "name": "Umunpata", "post_code": "453116" },
  { "name": "Umuobilaha II", "post_code": "453116" },
  { "name": "Umuobiloha I", "post_code": "453116" },
  { "name": "Umuohia", "post_code": "453116" },
  { "name": "Umuokerete", "post_code": "453116" },
  { "name": "Amapu", "post_code": "453119" },
  { "name": "Amapu", "post_code": "453119" },
  { "name": "Amauzu", "post_code": "453119" },
  { "name": "Okpuala", "post_code": "453119" },
  { "name": "Umumba", "post_code": "453119" },
  { "name": "Umuru", "post_code": "453119" },
  { "name": "Location/Street", "post_code": "Postcode" },
  { "name": "Amaelu", "post_code": "441112" },
  { "name": "Amaogidi", "post_code": "441112" },
  { "name": "Ihita", "post_code": "441112" },
  { "name": "Lokpanta", "post_code": "441112" },
  { "name": "Obilagu", "post_code": "441112" },
  { "name": "Umudi", "post_code": "441112" },
  { "name": "Uru", "post_code": "441112" },
  { "name": "Amaekwuru", "post_code": "441112" },
  { "name": "Location/Street", "post_code": "Postcode" },
  { "name": "Achra", "post_code": "441111" },
  { "name": "Amuda", "post_code": "441111" },
  { "name": "Ihie", "post_code": "441111" },
  { "name": "Lomara", "post_code": "441111" },
  { "name": "Mbala", "post_code": "441111" },
  { "name": "Ndiawa", "post_code": "441111" },
  { "name": "Ngodo", "post_code": "441111" },
  { "name": "Umuaku", "post_code": "441111" },
  { "name": "Umuelem", "post_code": "441111" },
  { "name": "Location/street", "post_code": "Postcode" },
  { "name": "Akawa", "post_code": "441110" },
  { "name": "Eziama", "post_code": "441110" },
  { "name": "Ubahu", "post_code": "441110" },
  { "name": "Amaubiri", "post_code": "441109" },
  { "name": "Eluama Amairoka", "post_code": "441109" },
  { "name": "Eluama Orota", "post_code": "441109" },
  { "name": "Eziama", "post_code": "441109" },
  { "name": "Ihite-Lekwesi", "post_code": "441109" },
  { "name": "Ihite-Leru", "post_code": "441109" },
  { "name": "Ikenga-Lekwesi", "post_code": "441109" },
  { "name": "Ikenga-Leru", "post_code": "441109" },
  { "name": "Uru", "post_code": "441109" },
  { "name": "STREET", "post_code": "POSTAL CODE" },
  { "name": "Asa Rd.", "post_code": "450211" },
  { "name": "Aziukwu Rd.", "post_code": "450211" },
  { "name": "Akwete St.", "post_code": "450211" },
  { "name": "Asa Triangle", "post_code": "450211" },
  { "name": "Clifford Rd.", "post_code": "450211" },
  { "name": "Cameroun Rd.", "post_code": "450211" },
  { "name": "Constitution Cr.", "post_code": "450211" },
  { "name": "Danfodio Rd.", "post_code": "450211" },
  { "name": "Ehi Rd.", "post_code": "450211" },
  { "name": "Eziukwu Rd.", "post_code": "450211" },
  { "name": "Etchie Rd.", "post_code": "450211" },
  { "name": "Factory Rd.", "post_code": "450211" },
  { "name": "Groze Rd.", "post_code": "450211" },
  { "name": "Greeks St.", "post_code": "450211" },
  { "name": "Hospital Rd.", "post_code": "450211" },
  { "name": "Howells Cr.", "post_code": "450211" },
  { "name": "Industry Rd.", "post_code": "450211" },
  { "name": "Independence Rd.", "post_code": "450211" },
  { "name": "Jubilee Rd Kent Rd.", "post_code": "450211" },
  { "name": "Kent St.", "post_code": "450211" },
  { "name": "Market St.", "post_code": "450211" },
  { "name": "Milverton Ave.", "post_code": "450211" },
  { "name": "Ndoki Rd.", "post_code": "450211" },
  { "name": "Nsulu St.", "post_code": "450211" },
  { "name": "Ngwa Rd.", "post_code": "450211" },
  { "name": "Obiora Rd.", "post_code": "450211" },
  { "name": "Oha Rd.", "post_code": "450211" },
  { "name": "Ojike Ln.", "post_code": "450211" },
  { "name": "Okigwe Rd.", "post_code": "450211" },
  { "name": "Ogolo Rd.", "post_code": "450211" },
  { "name": "Onyeador Close", "post_code": "450211" },
  { "name": "Park . Rd.", "post_code": "450211" },
  { "name": "Pound Rd.", "post_code": "450211" },
  { "name": "St. Michael’s Rd.", "post_code": "450211" },
  { "name": "School Rd.", "post_code": "450211" },
  { "name": "Tenant Rd.", "post_code": "450211" },
  { "name": "Ulasi Rd.", "post_code": "450211" },
  { "name": "Weeks Rd.", "post_code": "450211" },
  { "name": "York St.", "post_code": "450211" },
  { "name": "STREET", "post_code": "POSTAL CODE" },
  { "name": "AbaUkwu St.", "post_code": "420251" },
  { "name": "Ahunanya St.", "post_code": "450251" },
  { "name": "Akuobi St.", "post_code": "450251" },
  { "name": "Amaekpu St.", "post_code": "450251" },
  { "name": "Adindu St.", "post_code": "450251" },
  { "name": "Beight St.", "post_code": "450251" },
  { "name": "Chief Ugwuzor St.", "post_code": "450251" },
  { "name": "Cemetery Rd.", "post_code": "450251" },
  { "name": "Chief Nwosu St.", "post_code": "450251" },
  { "name": "Degema St.", "post_code": "450251" },
  { "name": "Duru St.", "post_code": "450251" },
  { "name": "Eme St.", "post_code": "450251" },
  { "name": "ECN Rd.", "post_code": "450251" },
  { "name": "Isiekensi St.", "post_code": "450251" },
  { "name": "Ibo St.", "post_code": "450251" },
  { "name": "Isuofia St.", "post_code": "450251" },
  { "name": "Ibenyi St.", "post_code": "450251" },
  { "name": "Iheoma St.", "post_code": "450251" },
  { "name": "Ikeduru St.", "post_code": "450251" },
  { "name": "Jaja St.", "post_code": "450251" },
  { "name": "Lagos St.", "post_code": "450251" },
  { "name": "Mbanasa St.", "post_code": "450251" },
  { "name": "Nwangwuma St.", "post_code": "450251" },
  { "name": "Nza St.", "post_code": "450251" },
  { "name": "Nwaizugbo St.", "post_code": "450251" },
  { "name": "Nnobi St.", "post_code": "450251" },
  { "name": "Nwoke St.", "post_code": "450251" },
  { "name": "Nweke St.", "post_code": "450251" },
  { "name": "Nwachukwu St.", "post_code": "450251" },
  { "name": "Onyeocha St.", "post_code": "450251" },
  { "name": "Oraberi St.", "post_code": "450251" },
  { "name": "Onyeri St.", "post_code": "450251" },
  { "name": "Onyike St.", "post_code": "450251" },
  { "name": "Obodo St.", "post_code": "450251" },
  { "name": "Ozuomba Rd.", "post_code": "450251" },
  { "name": "Onyeije St.", "post_code": "450251" },
  { "name": "Obohia Rd.", "post_code": "450251" },
  { "name": "Raclway Ave.", "post_code": "450251" },
  { "name": "Ubani St.", "post_code": "450251" },
  { "name": "Uko St.", "post_code": "450251" },
  { "name": "Ukpor Ln.", "post_code": "450251" },
  { "name": "Ukaegbu Rd.", "post_code": "450251" },
  { "name": "Uratta Rd.", "post_code": "450251" },
  { "name": "Uchegwu St.", "post_code": "450251" },
  { "name": "Emenike St.", "post_code": "450251" },
  { "name": "Emereonye St.", "post_code": "450251" },
  { "name": "Emole St.", "post_code": "450251" },
  { "name": "Enugu St.", "post_code": "450251" },
  { "name": "Enugu-Ukwu St.", "post_code": "450251" },
  { "name": "Enwereji St.", "post_code": "450251" },
  { "name": "Enyeribe St.", "post_code": "450251" },
  { "name": "Eunok St.", "post_code": "450251" },
  { "name": "Evina Rd.", "post_code": "450251" },
  { "name": "Ezeagu St.", "post_code": "450251" },
  { "name": "Ezeani St.", "post_code": "450251" },
  { "name": "Government St.", "post_code": "450251" },
  { "name": "Hardens St.", "post_code": "450251" },
  { "name": "Hillary St.", "post_code": "450251" },
  { "name": "Ibadan St.", "post_code": "450251" },
  { "name": "Ibere St.", "post_code": "450251" },
  { "name": "Idepence Rd.", "post_code": "450251" },
  { "name": "Ifakala St.", "post_code": "450251" },
  { "name": "Igwebuike St.", "post_code": "450251" },
  { "name": "Igwilo St.", "post_code": "450251" },
  { "name": "Iheoji Ave.", "post_code": "450251" },
  { "name": "Ishigu St.", "post_code": "450251" },
  { "name": "Iterm Rd.", "post_code": "450251" },
  { "name": "Maduka St.", "post_code": "450251" },
  { "name": "Mbaise Rd.", "post_code": "450251" },
  { "name": "Mbaitolu St.", "post_code": "450251" },
  { "name": "Mbieri St.", "post_code": "450251" },
  { "name": "Nbubo St.", "post_code": "450251" },
  { "name": "Ndianiche St.", "post_code": "450251" },
  { "name": "Ndiokorie St.", "post_code": "450251" },
  { "name": "Ndiolumbe St.", "post_code": "450251" },
  { "name": "Ndiuche St.", "post_code": "450251" },
  { "name": "Ndusoro St.", "post_code": "450251" },
  { "name": "NEPA Ln.", "post_code": "450251" },
  { "name": "Ngwa Rd.", "post_code": "450251" },
  { "name": "Niger St.", "post_code": "450251" },
  { "name": "Nkwere St.", "post_code": "450251" },
  { "name": "Nnewi St.", "post_code": "450251" },
  { "name": "Nwachukwu St.", "post_code": "450251" },
  { "name": "Nwafor St.", "post_code": "450251" },
  { "name": "Nwamu St.", "post_code": "450251" },
  { "name": "Nwasimuo St.", "post_code": "450251" },
  { "name": "Nworu St.", "post_code": "450251" },
  { "name": "Nwosu St.", "post_code": "450251" },
  { "name": "Oboro St.", "post_code": "450251" },
  { "name": "Obu St.", "post_code": "450251" },
  { "name": "Obunkwu St.", "post_code": "450251" },
  { "name": "Ogechi St.", "post_code": "450251" },
  { "name": "Ogwo Rd.", "post_code": "450251" },
  { "name": "Ohanku Rd.", "post_code": "450251" },
  { "name": "Ohazu Rd.", "post_code": "450251" },
  { "name": "Ohiaeri St.", "post_code": "450251" },
  { "name": "Ojoto St.", "post_code": "450251" },
  { "name": "Okeohia St.", "post_code": "450251" },
  { "name": "Okezie St.", "post_code": "450251" },
  { "name": "Okojombo St.", "post_code": "450251" },
  { "name": "Okorie St.", "post_code": "450251" },
  { "name": "Okoro Afor", "post_code": "450251" },
  { "name": "Okoro Rd.", "post_code": "450251" },
  { "name": "Olu St.", "post_code": "450251" },
  { "name": "Onyeike St.", "post_code": "450251" },
  { "name": "Onyemaechi St.", "post_code": "450251" },
  { "name": "Onyembi St.", "post_code": "450251" },
  { "name": "Oraifite St.", "post_code": "450251" },
  { "name": "Orji Lane Ln.", "post_code": "450251" },
  { "name": "Orji St.", "post_code": "450251" },
  { "name": "Osunkwo S St.", "post_code": "450251" },
  { "name": "Ozuitem Rd.", "post_code": "450251" },
  { "name": "Palm St.", "post_code": "450251" },
  { "name": "Peteruche St.", "post_code": "450251" },
  { "name": "Sabath St.", "post_code": "450251" },
  { "name": "St. John’s St.", "post_code": "450251" },
  { "name": "Uga St.", "post_code": "450251" },
  { "name": "Ugoala St.", "post_code": "450251" },
  { "name": "Ugwumba Estate", "post_code": "450251" },
  { "name": "Ukadike", "post_code": "450251" },
  { "name": "Ukaegbu St.", "post_code": "450251" },
  { "name": "Ukaonu St.", "post_code": "450251" },
  { "name": "Umumba St.", "post_code": "450251" },
  { "name": "Umunna Ato St.", "post_code": "450251" },
  { "name": "Umunna St.", "post_code": "450251" },
  { "name": "Umunwaoke St.", "post_code": "450251" },
  { "name": "Umuogele St.", "post_code": "450251" },
  { "name": "Umuokpara St.", "post_code": "450251" },
  { "name": "Umuosu St.", "post_code": "450251" },
  { "name": "Unity St.", "post_code": "450251" },
  { "name": "Uyo St.", "post_code": "450251" },
  { "name": "Victoria St.", "post_code": "450251" },
  { "name": "STREETS", "post_code": "POSTCODE" },
  { "name": "Abagwu St.", "post_code": "450261" },
  { "name": "Adindu St.", "post_code": "450261" },
  { "name": "Afikpo St.", "post_code": "450261" },
  { "name": "Agbaraevo St.", "post_code": "450261" },
  { "name": "Agomuo St.", "post_code": "450261" },
  { "name": "Aguta St.", "post_code": "450261" },
  { "name": "Alozie St.", "post_code": "450261" },
  { "name": "Amaukwu Rd.", "post_code": "450261" },
  { "name": "Amucha St.", "post_code": "450261" },
  { "name": "Anyanwu St.", "post_code": "450261" },
  { "name": "Apostolic Rd.", "post_code": "450261" },
  { "name": "Appolus Ave.", "post_code": "450261" },
  { "name": "Ariatia Market Ave.", "post_code": "450261" },
  { "name": "Bende St.", "post_code": "450261" },
  { "name": "Bessy Ave.", "post_code": "450261" },
  { "name": "Boundry St.", "post_code": "450261" },
  { "name": "Cemestry St.", "post_code": "450261" },
  { "name": "Charity St.", "post_code": "450261" },
  { "name": "Chief Solomon Alozie", "post_code": "450261" },
  { "name": "Chima St.", "post_code": "450261" },
  { "name": "Chizoba St.", "post_code": "450261" },
  { "name": "Duru St.", "post_code": "450261" },
  { "name": "Egbulefu St.", "post_code": "450261" },
  { "name": "Enyi Ave.", "post_code": "450261" },
  { "name": "Erunwamuo", "post_code": "450261" },
  { "name": "Ezinne St.", "post_code": "450261" },
  { "name": "Ibeanara St.", "post_code": "450261" },
  { "name": "Ikechi St.", "post_code": "450261" },
  { "name": "Ikpeamaeze St.", "post_code": "450261" },
  { "name": "Jiakpu St.", "post_code": "450261" },
  { "name": "Jojo St.", "post_code": "450261" },
  { "name": "Kanu Ave.", "post_code": "450261" },
  { "name": "Mba Ave.", "post_code": "450261" },
  { "name": "Mbagwu St.", "post_code": "450261" },
  { "name": "Mbanasa St.", "post_code": "450261" },
  { "name": "Mgbe St.", "post_code": "450261" },
  { "name": "Mgbeojii St.", "post_code": "450261" },
  { "name": "Napoleon Ave.", "post_code": "450261" },
  { "name": "Ndozi St.", "post_code": "450261" },
  { "name": "Ndukauba St.", "post_code": "450261" },
  { "name": "New Liberty Ave.", "post_code": "450261" },
  { "name": "New Makt Rd.", "post_code": "450261" },
  { "name": "Nimo St.", "post_code": "450261" },
  { "name": "Nkeire St.", "post_code": "450261" },
  { "name": "Nkwere Imenyi Ave.", "post_code": "450261" },
  { "name": "Nwafor St.", "post_code": "450261" },
  { "name": "Nwagwu St.", "post_code": "450261" },
  { "name": "Nwangwa St.", "post_code": "450261" },
  { "name": "Nwokeocha St.", "post_code": "450261" },
  { "name": "Obi Ave.", "post_code": "450261" },
  { "name": "Obuda St.", "post_code": "450261" },
  { "name": "Ogbonna Rd.", "post_code": "450261" },
  { "name": "Ogbuji St.", "post_code": "450261" },
  { "name": "Oil Shoe Ave.", "post_code": "450261" },
  { "name": "Okiyi Crescent", "post_code": "450261" },
  { "name": "Okwandu St.", "post_code": "450261" },
  { "name": "Old Exp. Rd.", "post_code": "450261" },
  { "name": "Omuma Rd.", "post_code": "450261" },
  { "name": "Onitsha Rd.", "post_code": "450261" },
  { "name": "Onuoha St.", "post_code": "450261" },
  { "name": "Osu Ihiteukwa Rd.", "post_code": "450261" },
  { "name": "Ozobulu St.", "post_code": "450261" },
  { "name": "Ozokwere St.", "post_code": "450261" },
  { "name": "Ph – Enugu Exwy.", "post_code": "450261" },
  { "name": "Power Line", "post_code": "450261" },
  { "name": "Sacred Heart Ave.", "post_code": "450261" },
  { "name": "Sameke Rd.", "post_code": "450261" },
  { "name": "Sondu St.", "post_code": "450261" },
  { "name": "St. Eugene Rd.", "post_code": "450261" },
  { "name": "Ugochukwu St.", "post_code": "450261" },
  { "name": "Uke St.", "post_code": "450261" },
  { "name": "Ukonu St.", "post_code": "450261" },
  { "name": "Ulonta St.", "post_code": "450261" },
  { "name": "Umuasiegbu St.", "post_code": "450261" },
  { "name": "Umudike St.", "post_code": "450261" },
  { "name": "Umuneleri Ave.", "post_code": "450261" },
  { "name": "Umuode St.", "post_code": "450261" },
  { "name": "Uwazie Ave.", "post_code": "450261" },
  { "name": "Uzodinma St.", "post_code": "450261" },
  { "name": "Uzomba Rd.", "post_code": "450261" },
  { "name": "Uzuakoli St.", "post_code": "450261" },
  { "name": "Watch Tower Rd.", "post_code": "450261" },
  { "name": "Onyekwere Ave.", "post_code": "450261" },
  { "name": "Onyenweaku St.", "post_code": "450261" },
  { "name": "Oriaku St.", "post_code": "450261" },
  { "name": "PH-ABA-EN-EXP Exwy.", "post_code": "450261" },
  { "name": "Samek Rd.", "post_code": "450261" },
  { "name": "Sampson Ubani Ave.", "post_code": "450261" },
  { "name": "Sir, Mark Cl.", "post_code": "450261" },
  { "name": "ST. Pauls St.", "post_code": "450261" },
  { "name": "Ubani Close", "post_code": "450261" },
  { "name": "Udu St.", "post_code": "450261" },
  { "name": "Ugwuala St.", "post_code": "450261" },
  { "name": "Umuatako St.", "post_code": "450261" },
  { "name": "Umuduru Ave.", "post_code": "450261" },
  { "name": "Umueze Rd.", "post_code": "450261" },
  { "name": "Umuimo Rd.", "post_code": "450261" },
  { "name": "Umumba Rd.", "post_code": "450261" },
  { "name": "Umunka St.", "post_code": "450261" },
  { "name": "Umunwankwo A Ave.", "post_code": "450261" },
  { "name": "Umunwankwo St.", "post_code": "450261" },
  { "name": "Umuocham", "post_code": "450261" },
  { "name": "Umuodu Ave.", "post_code": "450261" },
  { "name": "Umuokuala Rd.", "post_code": "450261" },
  { "name": "Unimac Rd.", "post_code": "450261" },
  { "name": "Uzo Metal Works St.", "post_code": "450261" },
  { "name": "Uzuke St.", "post_code": "450261" },
  { "name": "Yellow Ave.", "post_code": "450261" },
  { "name": "STREETS", "post_code": "POSTAL CODE" },
  { "name": "Ezima High School Rd.", "post_code": "450212" },
  { "name": "Unuanyanwu St.", "post_code": "450212" },
  { "name": "Uche St.", "post_code": "450212" },
  { "name": "Magreat Ave.", "post_code": "450212" },
  { "name": "STREET", "post_code": "ZIPCODES" },
  { "name": "Abam St.", "post_code": "450241" },
  { "name": "Adimoha Traingle", "post_code": "450241" },
  { "name": "Adiukwu St.", "post_code": "450241" },
  { "name": "Agharandu St.", "post_code": "450241" },
  { "name": "Agu Rd.", "post_code": "450241" },
  { "name": "Agulana Rd.", "post_code": "450241" },
  { "name": "Ahaba Imenyi St.", "post_code": "450241" },
  { "name": "Ahoda St.", "post_code": "450241" },
  { "name": "Airport Rd.", "post_code": "450241" },
  { "name": "Aja Rd.", "post_code": "450241" },
  { "name": "Ajali Rd.", "post_code": "450241" },
  { "name": "Ajuma Ln.", "post_code": "450241" },
  { "name": "Akanu St.", "post_code": "450241" },
  { "name": "Akokwa St.", "post_code": "450241" },
  { "name": "Akoli Imenyi St.", "post_code": "450241" },
  { "name": "Akoli Rd.", "post_code": "450241" },
  { "name": "Akukwu Rd.", "post_code": "450241" },
  { "name": "Akunwanta St.", "post_code": "450241" },
  { "name": "Akwandu St.", "post_code": "450241" },
  { "name": "Akwanu St.", "post_code": "450241" },
  { "name": "Akweze St.", "post_code": "450241" },
  { "name": "Alanso St.", "post_code": "450241" },
  { "name": "Alawan Ln.", "post_code": "450241" },
  { "name": "Alayi St.", "post_code": "450241" },
  { "name": "Amachi St.", "post_code": "450241" },
  { "name": "Amaka St.", "post_code": "450241" },
  { "name": "Amaoka St.", "post_code": "450241" },
  { "name": "Amos St.", "post_code": "450241" },
  { "name": "Anyim Dve.", "post_code": "450241" },
  { "name": "Arochukwu St.", "post_code": "450241" },
  { "name": "Arondizuogu St.", "post_code": "450241" },
  { "name": "Beathrics St.", "post_code": "450241" },
  { "name": "Bnede St.", "post_code": "450241" },
  { "name": "Boundry St.", "post_code": "450241" },
  { "name": "Chibueze St.", "post_code": "450241" },
  { "name": "College Rd.", "post_code": "450241" },
  { "name": "Degema St.", "post_code": "450241" },
  { "name": "Dike Rd.", "post_code": "450241" },
  { "name": "Dikenafai St.", "post_code": "450241" },
  { "name": "Edem St.", "post_code": "450241" },
  { "name": "Egbu St.", "post_code": "450241" },
  { "name": "Ekwes St.", "post_code": "450241" },
  { "name": "Eluohafia St.", "post_code": "450241" },
  { "name": "Emejiaka St.", "post_code": "450241" },
  { "name": "Emenike St.", "post_code": "450241" },
  { "name": "Emereonye St.", "post_code": "450241" },
  { "name": "Emole St.", "post_code": "450241" },
  { "name": "Enugu St.", "post_code": "450241" },
  { "name": "Enugu-Ukwu St.", "post_code": "450241" },
  { "name": "Enwereji St.", "post_code": "450241" },
  { "name": "Enyeribe St.", "post_code": "450241" },
  { "name": "Eunok St.", "post_code": "450241" },
  { "name": "Evina Rd.", "post_code": "450241" },
  { "name": "Ezeagu St.", "post_code": "450241" },
  { "name": "Ezeani St.", "post_code": "450241" },
  { "name": "Government St.", "post_code": "450241" },
  { "name": "Hardens St.", "post_code": "450241" },
  { "name": "Hillary St.", "post_code": "450241" },
  { "name": "Ibadan St.", "post_code": "450241" },
  { "name": "Ibere St.", "post_code": "450241" },
  { "name": "Idepence Rd.", "post_code": "450241" },
  { "name": "Ifakala St.", "post_code": "450241" },
  { "name": "Igwebuike St.", "post_code": "450241" },
  { "name": "Igwilo St.", "post_code": "450241" },
  { "name": "Iheoji Ave.", "post_code": "450241" },
  { "name": "Ishigu St.", "post_code": "450241" },
  { "name": "Iterm Rd.", "post_code": "450241" },
  { "name": "Maduka St.", "post_code": "450241" },
  { "name": "Mbaise Rd.", "post_code": "450241" },
  { "name": "Mbaitolu St.", "post_code": "450241" },
  { "name": "Mbieri St.", "post_code": "450241" },
  { "name": "Nbubo St.", "post_code": "450241" },
  { "name": "Ndianiche St.", "post_code": "450241" },
  { "name": "Ndiokorie St.", "post_code": "450241" },
  { "name": "Ndiolumbe St.", "post_code": "450241" },
  { "name": "Ndiuche St.", "post_code": "450241" },
  { "name": "Ndusoro St.", "post_code": "450241" },
  { "name": "NEPA Ln.", "post_code": "450241" },
  { "name": "Ngwa Rd.", "post_code": "450241" },
  { "name": "Niger St.", "post_code": "450241" },
  { "name": "Nkwere St.", "post_code": "450241" },
  { "name": "Nnewi St.", "post_code": "450241" },
  { "name": "Nwachukwu St.", "post_code": "450241" },
  { "name": "Nwafor St.", "post_code": "450241" },
  { "name": "Nwamu St.", "post_code": "450241" },
  { "name": "Nwasimuo St.", "post_code": "450241" },
  { "name": "Nworu St.", "post_code": "450241" },
  { "name": "Nwosu St.", "post_code": "450241" },
  { "name": "Oboro St.", "post_code": "450241" },
  { "name": "Obu St.", "post_code": "450241" },
  { "name": "Obunkwu St.", "post_code": "450241" },
  { "name": "Ogechi St.", "post_code": "450241" },
  { "name": "Ogwo Rd.", "post_code": "450241" },
  { "name": "Ohanku Rd.", "post_code": "450241" },
  { "name": "Ohazu Rd.", "post_code": "450241" },
  { "name": "Ohiaeri St.", "post_code": "450241" },
  { "name": "Ojoto St.", "post_code": "450241" },
  { "name": "Okeohia St.", "post_code": "450241" },
  { "name": "Okezie St.", "post_code": "450241" },
  { "name": "Okojombo St.", "post_code": "450241" },
  { "name": "Okorie St.", "post_code": "450241" },
  { "name": "Okoro Afor", "post_code": "450241" },
  { "name": "Okoro Rd.", "post_code": "450241" },
  { "name": "Olu St.", "post_code": "450241" },
  { "name": "Onyeike St.", "post_code": "450241" },
  { "name": "Onyemaechi St.", "post_code": "450241" },
  { "name": "Onyembi St.", "post_code": "450241" },
  { "name": "Oraifite St.", "post_code": "450241" },
  { "name": "Orji Lane Ln.", "post_code": "450241" },
  { "name": "Orji St.", "post_code": "450241" },
  { "name": "Osunkwo S St.", "post_code": "450241" },
  { "name": "Ozuitem Rd.", "post_code": "450241" },
  { "name": "Palm St.", "post_code": "450241" },
  { "name": "Peteruche St.", "post_code": "450241" },
  { "name": "Sabath St.", "post_code": "450241" },
  { "name": "St. John’s St.", "post_code": "450241" },
  { "name": "Uga St.", "post_code": "450241" },
  { "name": "Ugoala St.", "post_code": "450241" },
  { "name": "Ugwumba Estate", "post_code": "450241" },
  { "name": "Ukadike", "post_code": "450241" },
  { "name": "Ukaegbu St.", "post_code": "450241" },
  { "name": "Ukaonu St.", "post_code": "450241" },
  { "name": "Umumba St.", "post_code": "450241" },
  { "name": "Umunna Ato St.", "post_code": "450241" },
  { "name": "Umunna St.", "post_code": "450241" },
  { "name": "Umunwaoke St.", "post_code": "450241" },
  { "name": "Umuogele St.", "post_code": "450241" },
  { "name": "Umuokpara St.", "post_code": "450241" },
  { "name": "Umuosu St.", "post_code": "450241" },
  { "name": "Unity St.", "post_code": "450241" },
  { "name": "Uyo St.", "post_code": "450241" },
  { "name": "Victoria St.", "post_code": "450241" },
  { "name": "STREETS", "post_code": "POSTAL CODE" },
  { "name": "Achi St.", "post_code": "450221" },
  { "name": "Ahunanya St.", "post_code": "450221" },
  { "name": "Ajokwu Ave.", "post_code": "450221" },
  { "name": "Akanu Ochuru Ave.", "post_code": "450221" },
  { "name": "Akpu Rd.", "post_code": "450221" },
  { "name": "Alozie St.", "post_code": "450221" },
  { "name": "Amadi Ave.", "post_code": "450221" },
  { "name": "Amanze St.", "post_code": "450221" },
  { "name": "Ambrose Ebiogu Ave. Ave.", "post_code": "450221" },
  { "name": "Amlek Ave Ave.", "post_code": "450221" },
  { "name": "Ananaba St.", "post_code": "450221" },
  { "name": "Appolus St.", "post_code": "450221" },
  { "name": "Arochukwu St.", "post_code": "450221" },
  { "name": "Azka Drive", "post_code": "450221" },
  { "name": "Azuka Ext.", "post_code": "450221" },
  { "name": "Bourdex Ave.", "post_code": "450221" },
  { "name": "Chief Aguwa Ave.", "post_code": "450221" },
  { "name": "Chief Nwangwa Ave.", "post_code": "450221" },
  { "name": "Chief Nwaogu Ave.", "post_code": "450221" },
  { "name": "Chief Ubani Rd.", "post_code": "450221" },
  { "name": "Compost Rd.", "post_code": "450221" },
  { "name": "Afor-Ukwu", "post_code": "441121" },
  { "name": "Isiegbu", "post_code": "441121" },
  { "name": "Agba", "post_code": "441121" },
  { "name": "Obuohia", "post_code": "441121" },
  { "name": "Agbakoli", "post_code": "441121" },
  { "name": "Umunyere", "post_code": "441121" },
  { "name": "Amaeke", "post_code": "441121" },
  { "name": "Amagu", "post_code": "441121" },
  { "name": "Amaigwu", "post_code": "441121" },
  { "name": "Amankalu", "post_code": "441121" },
  { "name": "Amaoji", "post_code": "441121" },
  { "name": "Amaoku-Amaoku", "post_code": "441121" },
  { "name": "Amaokwelu", "post_code": "441121" },
  { "name": "Amaozara", "post_code": "441121" },
  { "name": "Amautazi-Okputa", "post_code": "441121" },
  { "name": "Elugwu", "post_code": "441121" },
  { "name": "Etiti Amaelu", "post_code": "441121" },
  { "name": "Etiti Amagbo", "post_code": "441121" },
  { "name": "Ezi Alayi", "post_code": "441121" },
  { "name": "Ukpom", "post_code": "441113" },
  { "name": "Umuokoro", "post_code": "441113" },
  { "name": "Obuohia", "post_code": "441113" },
  { "name": "Ogo Ubi Bende", "post_code": "441113" },
  { "name": "Okporoenyi", "post_code": "441113" },
  { "name": "Okputong", "post_code": "441113" },
  { "name": "Onuinyana", "post_code": "441113" },
  { "name": "Agbamuzu", "post_code": "441113" },
  { "name": "Agbomiri", "post_code": "441113" },
  { "name": "Amaoba", "post_code": "441113" },
  { "name": "Amaogwu", "post_code": "441113" },
  { "name": "Etiti", "post_code": "441113" },
  { "name": "Ishimigu", "post_code": "441113" },
  { "name": "Isiegbu", "post_code": "441113" },
  { "name": "Ndi-Torty", "post_code": "441113" },
  { "name": "Ndiekeugo", "post_code": "441113" },
  { "name": "Ndiokorukwu", "post_code": "441113" },
  { "name": "Nditoli", "post_code": "441113" },
  { "name": "Agbo", "post_code": "441120" },
  { "name": "Amaetiti", "post_code": "441120" },
  { "name": "Amaiyi", "post_code": "441120" },
  { "name": "Amakpo", "post_code": "441120" },
  { "name": "Amakwu", "post_code": "441120" },
  { "name": "Amaofufu", "post_code": "441120" },
  { "name": "Amoji", "post_code": "441120" },
  { "name": "Eziama", "post_code": "441120" },
  { "name": "Ibinanta", "post_code": "441120" },
  { "name": "Ibinaukwu", "post_code": "441120" },
  { "name": "Ohumola", "post_code": "441120" },
  { "name": "Umuisis", "post_code": "441120" },
  { "name": "City", "post_code": "Postcode" },
  { "name": "Akanu", "post_code": "441123" },
  { "name": "Akwanu", "post_code": "441123" },
  { "name": "Amaekpu", "post_code": "441123" },
  { "name": "Amaokwe", "post_code": "441123" },
  { "name": "Amaokwo", "post_code": "441123" },
  { "name": "Apanu", "post_code": "441123" },
  { "name": "Okagwe", "post_code": "441123" },
  { "name": "Okayi", "post_code": "441123" },
  { "name": "Okoko", "post_code": "441123" },
  { "name": "Umuakpa", "post_code": "441123" },
  { "name": "Umunnato", "post_code": "441123" },
  { "name": "Umuokpo", "post_code": "441123" },
  { "name": "City", "post_code": "Postcode" },
  { "name": "Ibom", "post_code": "441114" },
  { "name": "Mbukwa", "post_code": "441114" },
  { "name": "Ndi-Iwo", "post_code": "441114" },
  { "name": "Ntalakwu", "post_code": "441114" },
  { "name": "Okpoedi", "post_code": "441114" },
  { "name": "Umuokpe", "post_code": "441114" },
  { "name": "City", "post_code": "Postcode" },
  { "name": "Amadiaba", "post_code": "441117" },
  { "name": "Amaedukwo", "post_code": "441117" },
  { "name": "Amaohoro", "post_code": "441117" },
  { "name": "Amaokpu", "post_code": "441117" },
  { "name": "Eluama", "post_code": "441117" },
  { "name": "Muegwu", "post_code": "441117" },
  { "name": "Nkporo", "post_code": "441117" },
  { "name": "Odua", "post_code": "441117" },
  { "name": "Okpobia", "post_code": "441117" },
  { "name": "Ugwu", "post_code": "441117" },
  { "name": "Umuede", "post_code": "441117" },
  { "name": "City", "post_code": "Postcode" },
  { "name": "Umuobia", "post_code": "441118" },
  { "name": "Umuokoroali", "post_code": "441118" },
  { "name": "Amaukwu", "post_code": "441118" },
  { "name": "Umuolazi", "post_code": "441118" },
  { "name": "Ebem", "post_code": "441118" },
  { "name": "Elugwumba", "post_code": "441118" },
  { "name": "Idiagbo", "post_code": "441118" },
  { "name": "Ihie Mba", "post_code": "441118" },
  { "name": "Mgbele", "post_code": "441118" },
  { "name": "Ndiaikpakpim", "post_code": "441118" },
  { "name": "Ndiobu", "post_code": "441118" },
  { "name": "Ndiokoroguodu", "post_code": "441118" },
  { "name": "Ndiombe", "post_code": "441118" },
  { "name": "Obuofia", "post_code": "441118" },
  { "name": "Ofiavu", "post_code": "441118" },
  { "name": "Ogboko", "post_code": "441118" },
  { "name": "Umukpti", "post_code": "441118" },
  { "name": "Amaeke", "post_code": "441118" },
  { "name": "Amagbo", "post_code": "441118" },
  { "name": "City", "post_code": "Postcode" },
  { "name": "Amaba", "post_code": "441122" },
  { "name": "Amabanta", "post_code": "441122" },
  { "name": "Amaeze", "post_code": "441122" },
  { "name": "Amagu-Amaba", "post_code": "441122" },
  { "name": "Amakwu", "post_code": "441122" },
  { "name": "Amangwu", "post_code": "441122" },
  { "name": "Amaokayi", "post_code": "441122" },
  { "name": "Amauta", "post_code": "441122" },
  { "name": "Amiyi", "post_code": "441122" },
  { "name": "Ezenta", "post_code": "441122" },
  { "name": "Ezeukwu", "post_code": "441122" },
  { "name": "Ndielu", "post_code": "441122" },
  { "name": "Umungwere", "post_code": "441122" },
  { "name": "City", "post_code": "Postcode (ZIP)" },
  { "name": "Akoli Imenyi", "post_code": "441119" },
  { "name": "Amaoji", "post_code": "441119" },
  { "name": "Amaukwu", "post_code": "441119" },
  { "name": "Elu-Lodu", "post_code": "441119" },
  { "name": "Lodu", "post_code": "441119" },
  { "name": "Lohum", "post_code": "441119" },
  { "name": "City", "post_code": "Postcode (ZIP)" },
  { "name": "Achi", "post_code": "441116" },
  { "name": "Amabo", "post_code": "441116" },
  { "name": "Amagbo", "post_code": "441116" },
  { "name": "Amaugwu", "post_code": "441116" },
  { "name": "Amazo", "post_code": "441116" },
  { "name": "Ameke", "post_code": "441116" },
  { "name": "Isiegbu", "post_code": "441116" },
  { "name": "Ndiagbo", "post_code": "441116" },
  { "name": "Neke-Necha", "post_code": "441116" },
  { "name": "Okputo", "post_code": "441116" },
  { "name": "Umukpube", "post_code": "441116" },
  { "name": "City", "post_code": "Postcode (ZIP)" },
  { "name": "Eluama", "post_code": "441115" },
  { "name": "Ngwu", "post_code": "441115" },
  { "name": "Agbozu", "post_code": "441115" },
  { "name": "Amamba", "post_code": "441115" },
  { "name": "Amankwo", "post_code": "441115" },
  { "name": "Ebemma St.", "post_code": "450221" },
  { "name": "Egege St.", "post_code": "450221" },
  { "name": "Ehere Rd.", "post_code": "450221" },
  { "name": "Ehere Ext.", "post_code": "450221" },
  { "name": "Ehieze St.", "post_code": "450221" },
  { "name": "Emelogu St.", "post_code": "450221" },
  { "name": "Enwereoji St.", "post_code": "450221" },
  { "name": "Esionye Lane", "post_code": "450221" },
  { "name": "Ewuru Ave.", "post_code": "450221" },
  { "name": "Ezimba Ave.", "post_code": "450221" },
  { "name": "Eziudo St.", "post_code": "450221" },
  { "name": "Fed House: Ext", "post_code": "450221" },
  { "name": "Class Indu. Rd.", "post_code": "450221" },
  { "name": "Hards Dve.", "post_code": "450221" },
  { "name": "Hill Top St.", "post_code": "450221" },
  { "name": "Ifewulu St.", "post_code": "450221" },
  { "name": "Ikonne Rd.", "post_code": "450221" },
  { "name": "Ikot Ekpene Rd.", "post_code": "450221" },
  { "name": "Irogbu Cl.", "post_code": "450221" },
  { "name": "Itungwa Ave.", "post_code": "450221" },
  { "name": "Long John", "post_code": "450221" },
  { "name": "Medical Dve.", "post_code": "450221" },
  { "name": "Marcus Ave.", "post_code": "450221" },
  { "name": "NBL Layout", "post_code": "450221" },
  { "name": "New Umuahia Rd.", "post_code": "450221" },
  { "name": "Njoku Lane St.", "post_code": "450221" },
  { "name": "Nwaobasi St.", "post_code": "450221" },
  { "name": "Nwaigwe Cl.", "post_code": "450221" },
  { "name": "Nwogwugwu St.", "post_code": "450221" },
  { "name": "Nwokoleme Cl.", "post_code": "450221" },
  { "name": "Nwosu Cl.", "post_code": "450221" },
  { "name": "Nze Ave.", "post_code": "450221" },
  { "name": "Obikabia Rd.", "post_code": "450221" },
  { "name": "Oji Ogbu Cl.", "post_code": "450221" },
  { "name": "Okiriko Ln.", "post_code": "450221" },
  { "name": "Omoba Rd.", "post_code": "450221" },
  { "name": "Onyeike Ave.", "post_code": "450221" },
  { "name": "Opobo Rd.", "post_code": "450221" },
  { "name": "Osuagwu St.", "post_code": "450221" },
  { "name": "Okpulo Ave.", "post_code": "450221" },
  { "name": "Orji Lane", "post_code": "450221" },
  { "name": "Ovom Rd.", "post_code": "450221" },
  { "name": "Ozalla Ave.", "post_code": "450221" },
  { "name": "Pepples Rd.", "post_code": "450221" },
  { "name": "Sunday Akoli Rd.", "post_code": "450221" },
  { "name": "Sunny Azuka Ave.", "post_code": "450221" },
  { "name": "Tom Azuka Ave.", "post_code": "450221" },
  { "name": "Ukaegbu Rd.", "post_code": "450221" },
  { "name": "Ukata Ave.", "post_code": "450221" },
  { "name": "Umelendu St.", "post_code": "450221" },
  { "name": "Umukama St.", "post_code": "450221" },
  { "name": "Umuokahia Vill", "post_code": "450221" },
  { "name": "Umuokea Rd.", "post_code": "450221" },
  { "name": "Umuola Egbelu", "post_code": "450221" },
  { "name": "Umu ola St.", "post_code": "450221" },
  { "name": "Urualla St.", "post_code": "450221" },
  { "name": "Yombo Uchemkpa", "post_code": "450221" },
  { "name": "Ngwa Rd.", "post_code": "450221" },
  { "name": "Niger St.", "post_code": "450221" },
  { "name": "Nkwere St.", "post_code": "450221" },
  { "name": "Nnewi St.", "post_code": "450221" },
  { "name": "Nwachukwu St.", "post_code": "450221" },
  { "name": "Nwafor St.", "post_code": "450221" },
  { "name": "Nwamu St.", "post_code": "450221" },
  { "name": "Nwasimuo St.", "post_code": "450221" },
  { "name": "Nworu St.", "post_code": "450221" },
  { "name": "Nwosu St.", "post_code": "450221" },
  { "name": "Oboro St.", "post_code": "450221" },
  { "name": "Obu St.", "post_code": "450221" },
  { "name": "Obunkwu St.", "post_code": "450221" },
  { "name": "Ogechi St.", "post_code": "450221" },
  { "name": "Ogwo Rd.", "post_code": "450221" },
  { "name": "Ohanku Rd.", "post_code": "450221" },
  { "name": "Ohazu Rd.", "post_code": "450221" },
  { "name": "Ohiaeri St.", "post_code": "450221" },
  { "name": "Ojoto St.", "post_code": "450221" },
  { "name": "Okeohia St.", "post_code": "450221" },
  { "name": "Okezie St.", "post_code": "450221" },
  { "name": "Okojombo St.", "post_code": "450221" },
  { "name": "Okorie St.", "post_code": "450221" },
  { "name": "Okoro Afor", "post_code": "450221" },
  { "name": "Okoro Rd.", "post_code": "450221" },
  { "name": "Olu St.", "post_code": "450221" },
  { "name": "Onyeike St.", "post_code": "450221" },
  { "name": "Onyemaechi St.", "post_code": "450221" },
  { "name": "Onyembi St.", "post_code": "450221" },
  { "name": "Oraifite St.", "post_code": "450221" },
  { "name": "Orji Lane Ln.", "post_code": "450221" },
  { "name": "Orji St.", "post_code": "450221" },
  { "name": "Osunkwo S St.", "post_code": "450221" },
  { "name": "Ozuitem Rd.", "post_code": "450221" },
  { "name": "Palm St.", "post_code": "450221" },
  { "name": "Peteruche St.", "post_code": "450221" },
  { "name": "Sabath St.", "post_code": "450221" },
  { "name": "St. John’s St.", "post_code": "450221" },
  { "name": "Uga St.", "post_code": "450221" },
  { "name": "Ugoala St.", "post_code": "450221" },
  { "name": "Ugwumba Estate", "post_code": "450221" },
  { "name": "Ukadike", "post_code": "450221" },
  { "name": "Ukaegbu St.", "post_code": "450221" },
  { "name": "Ukaonu St.", "post_code": "450221" },
  { "name": "Umumba St.", "post_code": "450221" },
  { "name": "Umunna Ato St.", "post_code": "450221" },
  { "name": "Umunna St.", "post_code": "450221" },
  { "name": "Umunwaoke St.", "post_code": "450221" },
  { "name": "Umuogele St.", "post_code": "450221" },
  { "name": "Umuokpara St.", "post_code": "450221" },
  { "name": "Umuosu St.", "post_code": "450221" },
  { "name": "Unity St.", "post_code": "450221" },
  { "name": "Uyo St.", "post_code": "450221" },
  { "name": "Victoria St.", "post_code": "450221" },
  { "name": "STREETS", "post_code": "POSTCODE" },
  { "name": "Achilihu Rd.", "post_code": "450271" },
  { "name": "Aduka A Ave.", "post_code": "450271" },
  { "name": "Agu Ave.", "post_code": "450271" },
  { "name": "Agwu Ave.", "post_code": "450271" },
  { "name": "Agwuocha Close Cl.", "post_code": "450271" },
  { "name": "Ahukanna St.", "post_code": "450271" },
  { "name": "Ajiwe Ave.", "post_code": "450271" },
  { "name": "Akpulonu St.", "post_code": "450271" },
  { "name": "Amandugba St.", "post_code": "450271" },
  { "name": "Amaogwugwu Ave.", "post_code": "450271" },
  { "name": "Amara Ave.", "post_code": "450271" },
  { "name": "Amos Close St.", "post_code": "450271" },
  { "name": "Anyanwu St.", "post_code": "450271" },
  { "name": "Army Barracks St.", "post_code": "450271" },
  { "name": "Boundry St.", "post_code": "450271" },
  { "name": "Broad St.", "post_code": "450271" },
  { "name": "Calabar St.", "post_code": "450271" },
  { "name": "Chibuike Ave.", "post_code": "450271" },
  { "name": "Chiedozie Ave.", "post_code": "450271" },
  { "name": "Chilaka St.", "post_code": "450271" },
  { "name": "Chinata Ave.", "post_code": "450271" },
  { "name": "Eberechi St.", "post_code": "450271" },
  { "name": "Egbelu Ropad Rd.", "post_code": "450271" },
  { "name": "Ehuche Lane", "post_code": "450271" },
  { "name": "Ekanna Ave.", "post_code": "450271" },
  { "name": "Ekpendu St.", "post_code": "450271" },
  { "name": "Eme St.", "post_code": "450271" },
  { "name": "Emeka Ave.", "post_code": "450271" },
  { "name": "Enock St.", "post_code": "450271" },
  { "name": "Enwereji St.", "post_code": "450271" },
  { "name": "Enwerem Close", "post_code": "450271" },
  { "name": "Erondu St.", "post_code": "450271" },
  { "name": "Eronwu Ave.", "post_code": "450271" },
  { "name": "Ezimola Ave.", "post_code": "450271" },
  { "name": "Faulks 1-60 Rd.", "post_code": "450271" },
  { "name": "Ferguson Ave.", "post_code": "450271" },
  { "name": "Garden City Ave.", "post_code": "450271" },
  { "name": "Ichida St.", "post_code": "450271" },
  { "name": "Ihuoma St.", "post_code": "450271" },
  { "name": "Ikenna St.", "post_code": "450271" },
  { "name": "Ikonne St.", "post_code": "450271" },
  { "name": "Isuikwuator Lane", "post_code": "450271" },
  { "name": "Iwejunwa St.", "post_code": "450271" },
  { "name": "Leach St.", "post_code": "450271" },
  { "name": "Martina Ave.", "post_code": "450271" },
  { "name": "Mgbeahuru St.", "post_code": "450271" },
  { "name": "Morocco St.", "post_code": "450271" },
  { "name": "Ndu St.", "post_code": "450271" },
  { "name": "Ngozi Ave.", "post_code": "450271" },
  { "name": "Nkwoji St.", "post_code": "450271" },
  { "name": "Nwachukwu Ave.", "post_code": "450271" },
  { "name": "Nwachukwu Ext.", "post_code": "450271" },
  { "name": "Nwadire St.", "post_code": "450271" },
  { "name": "Nwagba Ave.", "post_code": "450271" },
  { "name": "Nwagolo St.", "post_code": "450271" },
  { "name": "Nwaigwe Ave.", "post_code": "450271" },
  { "name": "Nwakerendu Ave.", "post_code": "450271" },
  { "name": "Nwala St.", "post_code": "450271" },
  { "name": "Nwankpa St.", "post_code": "450271" },
  { "name": "Nwogu St.", "post_code": "450271" },
  { "name": "Nwosu St.", "post_code": "450271" },
  { "name": "Nwulu Ext.", "post_code": "450271" },
  { "name": "Nwulu St.", "post_code": "450271" },
  { "name": "Obuda St.", "post_code": "450271" },
  { "name": "Ogene Close", "post_code": "450271" },
  { "name": "Ohiagu Ave.", "post_code": "450271" },
  { "name": "Ojukwu Close", "post_code": "450271" },
  { "name": "Okereke St.", "post_code": "450271" },
  { "name": "Okwandu St.", "post_code": "450271" },
  { "name": "Okwu Ave. Ext.", "post_code": "450271" },
  { "name": "Okwu", "post_code": "450271" },
  { "name": "Okwukwendi St.", "post_code": "450271" },
  { "name": "Old Power Line", "post_code": "450271" },
  { "name": "Omenazu Ave.", "post_code": "450271" },
  { "name": "Omenka St.", "post_code": "450271" },
  { "name": "Omuma Rd.", "post_code": "450271" },
  { "name": "Onukwurunto Ave.", "post_code": "450271" },
  { "name": "Onwukwe Ave.", "post_code": "450271" },
  { "name": "Onyebuchi St.", "post_code": "450271" },
  { "name": "Onyekachi St.", "post_code": "450271" },
  { "name": "Onyenso St.", "post_code": "450271" },
  { "name": "Orji St.", "post_code": "450271" },
  { "name": "Osusu Rd.", "post_code": "450271" },
  { "name": "Owerri Rd.", "post_code": "450271" },
  { "name": "Paradise St.", "post_code": "450271" },
  { "name": "Robinson Close", "post_code": "450271" },
  { "name": "Slaughter Ave.", "post_code": "450271" },
  { "name": "St. Eugene St.", "post_code": "450271" },
  { "name": "St. Patrick’s Ave.", "post_code": "450271" },
  { "name": "Uba St.", "post_code": "450271" },
  { "name": "Udoejiofor St.", "post_code": "450271" },
  { "name": "Ugorji St.", "post_code": "450271" },
  { "name": "Umule Rd.", "post_code": "450271" },
  { "name": "Ohanku Rd.", "post_code": "450271" },
  { "name": "Ohazu Rd.", "post_code": "450271" },
  { "name": "Ohiaeri St.", "post_code": "450271" },
  { "name": "Ojoto St.", "post_code": "450271" },
  { "name": "Okeohia St.", "post_code": "450271" },
  { "name": "Okezie St.", "post_code": "450271" },
  { "name": "Okojombo St.", "post_code": "450271" },
  { "name": "Okorie St.", "post_code": "450271" },
  { "name": "Okoro Afor", "post_code": "450271" },
  { "name": "Okoro Rd.", "post_code": "450271" },
  { "name": "Olu St.", "post_code": "450271" },
  { "name": "Onyeike St.", "post_code": "450271" },
  { "name": "Onyemaechi St.", "post_code": "450271" },
  { "name": "Onyembi St.", "post_code": "450271" },
  { "name": "Oraifite St.", "post_code": "450271" },
  { "name": "Orji Lane Ln.", "post_code": "450271" },
  { "name": "Orji St.", "post_code": "450271" },
  { "name": "Osunkwo S St.", "post_code": "450271" },
  { "name": "Ozuitem Rd.", "post_code": "450271" },
  { "name": "Palm St.", "post_code": "450271" },
  { "name": "Peteruche St.", "post_code": "450271" },
  { "name": "Sabath St.", "post_code": "450271" },
  { "name": "St. John’s St.", "post_code": "450271" },
  { "name": "Uga St.", "post_code": "450271" },
  { "name": "Ugoala St.", "post_code": "450271" },
  { "name": "Ugwumba Estate", "post_code": "450271" },
  { "name": "Ukadike", "post_code": "450271" },
  { "name": "Ukaegbu St.", "post_code": "450271" },
  { "name": "Ukaonu St.", "post_code": "450271" },
  { "name": "Umumba St.", "post_code": "450271" },
  { "name": "Umunna Ato St.", "post_code": "450271" },
  { "name": "Umunna St.", "post_code": "450271" },
  { "name": "Umunwaoke St.", "post_code": "450271" },
  { "name": "Umuogele St.", "post_code": "450271" },
  { "name": "Umuokpara St.", "post_code": "450271" },
  { "name": "Umuosu St.", "post_code": "450271" },
  { "name": "Unity St.", "post_code": "450271" },
  { "name": "Uyo St.", "post_code": "450271" },
  { "name": "Victoria St.", "post_code": "450271" },
  { "name": "STREETS", "post_code": "POSTCODE" },
  { "name": "Adindu St.", "post_code": "450252" },
  { "name": "Ahuruonye St.", "post_code": "450252" },
  { "name": "Akabogu St.", "post_code": "450252" },
  { "name": "Asa Nnetu Mkt", "post_code": "450252" },
  { "name": "Chigbu St.", "post_code": "450252" },
  { "name": "Christ the King St.", "post_code": "450252" },
  { "name": "Co-Operative Rd.", "post_code": "450252" },
  { "name": "Crystal Park Rd.", "post_code": "450252" },
  { "name": "Dans Ave.", "post_code": "450252" },
  { "name": "Edo St.", "post_code": "450252" },
  { "name": "Ehiemere St.", "post_code": "450252" },
  { "name": "Ekpem St.", "post_code": "450252" },
  { "name": "Ekpendu St.", "post_code": "450252" },
  { "name": "Emeghara Ibe St.", "post_code": "450252" },
  { "name": "Eziora Ln.", "post_code": "450252" },
  { "name": "Furo St.", "post_code": "450252" },
  { "name": "Georges St.", "post_code": "450252" },
  { "name": "Ibina St.", "post_code": "450252" },
  { "name": "Igbere St.", "post_code": "450252" },
  { "name": "Oba St.", "post_code": "450252" },
  { "name": "Ohabiam Rd.", "post_code": "450252" },
  { "name": "Ojoto St.", "post_code": "450252" },
  { "name": "Olewe St.", "post_code": "450252" },
  { "name": "Ozubulu St.", "post_code": "450252" },
  { "name": "PH RD (From No. 122-Exp.) Rd.", "post_code": "450252" },
  { "name": "Ujo Umunna Rd.", "post_code": "450252" },
  { "name": "Ukachi St.", "post_code": "450252" },
  { "name": "Umuagbai Rd.", "post_code": "450252" },
  { "name": "Umuaro St.", "post_code": "450252" },
  { "name": "Umuehiafu Rd.", "post_code": "450252" },
  { "name": "Umuoji St.", "post_code": "450252" },
  { "name": "United St.", "post_code": "450252" },
  { "name": "STREET", "post_code": "POSTAL CODE" },
  { "name": "Aba-OW Rd.", "post_code": "450272" },
  { "name": "Abia University Rd.", "post_code": "450272" },
  { "name": "Afo Ule St.", "post_code": "450272" },
  { "name": "Agnaohu Close", "post_code": "450272" },
  { "name": "Agwarangwa Rd.", "post_code": "450272" },
  { "name": "Agwu Ave.", "post_code": "450272" },
  { "name": "Ahunanya St.", "post_code": "450272" },
  { "name": "Ajagba St.", "post_code": "450272" },
  { "name": "Ajiwe Crescent", "post_code": "450272" },
  { "name": "Akudo St.", "post_code": "450272" },
  { "name": "Amaebgbu Rd.", "post_code": "450272" },
  { "name": "Amaechi Ave.", "post_code": "450272" },
  { "name": "Amaefula St.", "post_code": "450272" },
  { "name": "Amanso St.", "post_code": "450272" },
  { "name": "Amaukwu St.", "post_code": "450272" },
  { "name": "Anyaka St.", "post_code": "450272" },
  { "name": "Anyamele St.", "post_code": "450272" },
  { "name": "At Anthony St.", "post_code": "450272" },
  { "name": "Awan Close", "post_code": "450272" },
  { "name": "Azubuike Ave.", "post_code": "450272" },
  { "name": "Azuka Ave.", "post_code": "450272" },
  { "name": "Brass St.", "post_code": "450272" },
  { "name": "Chief Irobi Comp.", "post_code": "450272" },
  { "name": "Chief Okedie Ave.", "post_code": "450272" },
  { "name": "Chief Okezie Ext", "post_code": "450272" },
  { "name": "College Rd.", "post_code": "450272" },
  { "name": "Contental Plastic Rd.", "post_code": "450272" },
  { "name": "Dike Ave.", "post_code": "450272" },
  { "name": "Ebe Ave.", "post_code": "450272" },
  { "name": "Egbede Cl.", "post_code": "450272" },
  { "name": "Egbuchiwe’s Comp.", "post_code": "450272" },
  { "name": "Egbuelu Rd.", "post_code": "450272" },
  { "name": "Egbuufor Ave.", "post_code": "450272" },
  { "name": "Ejinaka St.", "post_code": "450272" },
  { "name": "Enyinna St.", "post_code": "450272" },
  { "name": "Esiaba St.", "post_code": "450272" },
  { "name": "Friends Ave.", "post_code": "450272" },
  { "name": "Gaberiel Nwosu Ave.", "post_code": "450272" },
  { "name": "Green Nwala Rd.", "post_code": "450272" },
  { "name": "Immaculate Ave.", "post_code": "450272" },
  { "name": "Imuka Rd.", "post_code": "450272" },
  { "name": "Irobi Ln.", "post_code": "450272" },
  { "name": "J. K. Nwagiri Ave.", "post_code": "450272" },
  { "name": "Kamalu St.", "post_code": "450272" },
  { "name": "M. C.C. Rd.", "post_code": "450272" },
  { "name": "Mbutu St.", "post_code": "450272" },
  { "name": "Menairu Ave.", "post_code": "450272" },
  { "name": "Nathaniel’s Rd.", "post_code": "450272" },
  { "name": "Ndubuisi Ave.", "post_code": "450272" },
  { "name": "Ndukauba Ave.", "post_code": "450272" },
  { "name": "Ndukwe Ave.", "post_code": "450272" },
  { "name": "Nicholas Rd.", "post_code": "450272" },
  { "name": "Njoku Ave.", "post_code": "450272" },
  { "name": "Nkenyi Ln.", "post_code": "450272" },
  { "name": "Nkoro Ave.", "post_code": "450272" },
  { "name": "Nursery School Ave.", "post_code": "450272" },
  { "name": "Nwagba Ave.", "post_code": "450272" },
  { "name": "Nwagbaoso Ave.", "post_code": "450272" },
  { "name": "Nwagiri Ave.", "post_code": "450272" },
  { "name": "Nwakerendu Ave.", "post_code": "450272" },
  { "name": "Nwakpa St.", "post_code": "450272" },
  { "name": "Nwala St.", "post_code": "450272" },
  { "name": "Nwalozie Est.", "post_code": "450272" },
  { "name": "Nwalozie Ln.", "post_code": "450272" },
  { "name": "Nwankpa’s Comp.", "post_code": "450272" },
  { "name": "Nwaobilor Ave.", "post_code": "450272" },
  { "name": "Nwaururuaku St.", "post_code": "450272" },
  { "name": "Nweke St.", "post_code": "450272" },
  { "name": "Nwogu St.", "post_code": "450272" },
  { "name": "Obioma Ave.", "post_code": "450272" },
  { "name": "Odu Ln.", "post_code": "450272" },
  { "name": "Ofoedu Cl.", "post_code": "450272" },
  { "name": "Ogbonna Cl.", "post_code": "450272" },
  { "name": "Okoro Ave.", "post_code": "450272" },
  { "name": "Okorocha Ave.", "post_code": "450272" },
  { "name": "Okpu umuobo Rd.", "post_code": "450272" },
  { "name": "Old Aba -W Rd.", "post_code": "450272" },
  { "name": "Omenazu St.", "post_code": "450272" },
  { "name": "Onucha Akairo Ave.", "post_code": "450272" },
  { "name": "Onunka St.", "post_code": "450272" },
  { "name": "Onwuka Ind. Est", "post_code": "450272" },
  { "name": "Onyeike Ave.", "post_code": "450272" },
  { "name": "Onyekwere Ave.", "post_code": "450272" },
  { "name": "Onyenweaku St.", "post_code": "450272" },
  { "name": "Oriaku St.", "post_code": "450272" },
  { "name": "PH-ABA-EN-EXP Exwy.", "post_code": "450272" },
  { "name": "Samek Rd.", "post_code": "450272" },
  { "name": "Sampson Ubani Ave.", "post_code": "450272" },
  { "name": "Sir, Mark Cl.", "post_code": "450272" },
  { "name": "ST. Pauls St.", "post_code": "450272" },
  { "name": "Ubani Close", "post_code": "450272" },
  { "name": "Udu St.", "post_code": "450272" },
  { "name": "Ugwuala St.", "post_code": "450272" },
  { "name": "Umuatako St.", "post_code": "450272" },
  { "name": "Umuduru Ave.", "post_code": "450272" },
  { "name": "Umueze Rd.", "post_code": "450272" },
  { "name": "Umuimo Rd.", "post_code": "450272" },
  { "name": "Umumba Rd.", "post_code": "450272" },
  { "name": "Umunka St.", "post_code": "450272" },
  { "name": "Umunwankwo A Ave.", "post_code": "450272" },
  { "name": "Umunwankwo St.", "post_code": "450272" },
  { "name": "Umuocham", "post_code": "450272" },
  { "name": "Umuodu Ave.", "post_code": "450272" },
  { "name": "Umuokuala Rd.", "post_code": "450272" },
  { "name": "Unimac Rd.", "post_code": "450272" },
  { "name": "Uzo Metal Works St.", "post_code": "450272" },
  { "name": "Uzuke St.", "post_code": "450272" },
  { "name": "Yellow Ave.", "post_code": "450272" },
  { "name": "Town", "post_code": "Postal code" },
  { "name": "Amaegbu", "post_code": "440110" },
  { "name": "Ariam Eku-Elu", "post_code": "440110" },
  { "name": "Ariam-Alala", "post_code": "440110" },
  { "name": "Azunchai", "post_code": "440110" },
  { "name": "Ekpiri – Eludu", "post_code": "440110" },
  { "name": "Ekpiri-Alala", "post_code": "440110" },
  { "name": "Ekwelu", "post_code": "440110" },
  { "name": "Ndieke", "post_code": "440110" },
  { "name": "Ndiokoro", "post_code": "440110" },
  { "name": "Ndiorie", "post_code": "440110" },
  { "name": "Obeagwu", "post_code": "440110" },
  { "name": "Obeama", "post_code": "440110" },
  { "name": "Oboni I", "post_code": "440110" },
  { "name": "Oboni II", "post_code": "440110" },
  { "name": "Upa", "post_code": "440110" },
  { "name": "Usaka Ukwu", "post_code": "440110" },
  { "name": "Ajata", "post_code": "440101" },
  { "name": "Ameke", "post_code": "440101" },
  { "name": "Amuzukwu", "post_code": "440101" },
  { "name": "Apuagwu", "post_code": "440101" },
  { "name": "Avonkwu", "post_code": "440101" },
  { "name": "Emede", "post_code": "440101" },
  { "name": "Ihie", "post_code": "440101" },
  { "name": "Isieke", "post_code": "440101" },
  { "name": "Iyienyi", "post_code": "440101" },
  { "name": "Lodu", "post_code": "440101" },
  { "name": "Ndume", "post_code": "440101" },
  { "name": "Nkata", "post_code": "440101" },
  { "name": "Ofeke", "post_code": "440101" },
  { "name": "Ohokobe", "post_code": "440101" },
  { "name": "Okwoi", "post_code": "440101" },
  { "name": "Okwuta", "post_code": "440101" },
  { "name": "Ossah", "post_code": "440101" },
  { "name": "Ubani", "post_code": "440101" },
  { "name": "Ugba", "post_code": "440101" },
  { "name": "Umohu", "post_code": "440101" },
  { "name": "Umuafia", "post_code": "440101" },
  { "name": "Umuana", "post_code": "440101" },
  { "name": "Umuezeala", "post_code": "440101" },
  { "name": "Umuhute", "post_code": "440101" },
  { "name": "Amaru", "post_code": "440108" },
  { "name": "Elemage", "post_code": "440108" },
  { "name": "Iberenta", "post_code": "440108" },
  { "name": "Ihim", "post_code": "440108" },
  { "name": "Inyila", "post_code": "440108" },
  { "name": "Isiala", "post_code": "440108" },
  { "name": "Itunta", "post_code": "440108" },
  { "name": "Iyalu", "post_code": "440108" },
  { "name": "Nkalunta", "post_code": "440108" },
  { "name": "Nowugwo", "post_code": "440108" },
  { "name": "Obuolia", "post_code": "440108" },
  { "name": "Obuoro", "post_code": "440108" },
  { "name": "Umuemenike", "post_code": "440108" },
  { "name": "Umulu", "post_code": "440108" },
  { "name": "Umuokwe", "post_code": "440108" },
  { "name": "Area/Street", "post_code": "Postal Code" },
  { "name": "Amafor", "post_code": "440106" },
  { "name": "Amafor-Ikungwu", "post_code": "440106" },
  { "name": "Nkwoachara", "post_code": "440106" },
  { "name": "Umoka", "post_code": "440106" },
  { "name": "Umuaganga", "post_code": "440106" },
  { "name": "Umuda", "post_code": "440106" },
  { "name": "Umuokoro", "post_code": "440106" },
  { "name": "Umuokwelenta", "post_code": "440106" },
  { "name": "Umuoriehi", "post_code": "440106" },
  { "name": "Town/Street", "post_code": "Postal Code" },
  { "name": "Akpahia-Obiohuru", "post_code": "440112" },
  { "name": "Akpahia-Okpula", "post_code": "440112" },
  { "name": "Egwunaeleke", "post_code": "440112" },
  { "name": "Ngboko", "post_code": "440112" },
  { "name": "Nkata-Okpula", "post_code": "440112" },
  { "name": "Nkatalike", "post_code": "440112" },
  { "name": "Obiohuru", "post_code": "440112" },
  { "name": "Okaiuga", "post_code": "440112" },
  { "name": "Umuagbom", "post_code": "440112" },
  { "name": "Umuagungoliri", "post_code": "440112" },
  { "name": "Umuakam", "post_code": "440112" },
  { "name": "Umuegwu-Obihuru", "post_code": "440112" },
  { "name": "Umuegwu-Okpuala", "post_code": "440112" },
  { "name": "Umuekwulu I", "post_code": "440112" },
  { "name": "Umuekwelu II", "post_code": "440112" },
  { "name": "Umukabia", "post_code": "400112" },
  { "name": "Umule", "post_code": "400112" },
  { "name": "Umumiri-Umukabia", "post_code": "440112" },
  { "name": "Umuochu", "post_code": "440112" },
  { "name": "Umuofiaka", "post_code": "440112" },
  { "name": "Umuohuru", "post_code": "440112" },
  { "name": "Umuokehi-Okpuara", "post_code": "440112" },
  { "name": "Umuokoro-Ala", "post_code": "440112" },
  { "name": "Umuokwhi-Obiohuru", "post_code": "440112" },
  { "name": "Umuosu", "post_code": "440112" },
  { "name": "Area/Street", "post_code": "Postal code" },
  { "name": "Okwarakaru", "post_code": "44107" },
  { "name": "Umuawa-Alaocha", "post_code": "44107" },
  { "name": "Umuezerela", "post_code": "44107" },
  { "name": "Umuire", "post_code": "44107" },
  { "name": "Umuyota", "post_code": "44107" },
  { "name": "Street/Area", "post_code": "Postal Code" },
  { "name": "Ahuwa", "post_code": "440109" },
  { "name": "Amaoba-Ikputu", "post_code": "440109" },
  { "name": "Amaoba-Ime", "post_code": "440109" },
  { "name": "Amawom", "post_code": "440109" },
  { "name": "Aro-Ajatakiri", "post_code": "440109" },
  { "name": "Aro-Anyama", "post_code": "440109" },
  { "name": "Ekebedi", "post_code": "440109" },
  { "name": "Isiala", "post_code": "440109" },
  { "name": "Ndioro", "post_code": "440109" },
  { "name": "Nnono", "post_code": "440109" },
  { "name": "Ntalakwu", "post_code": "440109" },
  { "name": "Obunta", "post_code": "440109" },
  { "name": "Okwe", "post_code": "440109" },
  { "name": "Ugbegbule", "post_code": "440109" },
  { "name": "Umuariaga", "post_code": "440109" },
  { "name": "Umudike", "post_code": "440109" },
  { "name": "Umugbalu", "post_code": "440109" },
  { "name": "Umuokwo", "post_code": "440109" },
  { "name": "Amuzuta", "post_code": "440103" },
  { "name": "Okwu", "post_code": "440103" },
  { "name": "Umecheokwu", "post_code": "440103" },
  { "name": "Umuecheokwu", "post_code": "440103" },
  { "name": "Umueledi", "post_code": "440103" },
  { "name": "Umuezeala", "post_code": "440103" },
  { "name": "Umuobutu", "post_code": "440103" },
  { "name": "Umuovo", "post_code": "440103" },
  { "name": "Abgama", "post_code": "440102" },
  { "name": "Ahiaukwu", "post_code": "440102" },
  { "name": "Amakama", "post_code": "440102" },
  { "name": "Amangwu Elu-Elu", "post_code": "440102" },
  { "name": "Amankwuo Alala", "post_code": "440102" },
  { "name": "Amizi", "post_code": "440102" },
  { "name": "Amuzu", "post_code": "440102" },
  { "name": "Avonkwu", "post_code": "440102" },
  { "name": "Itaja", "post_code": "440102" },
  { "name": "Itaja Obuohia", "post_code": "440102" },
  { "name": "Itu", "post_code": "440102" },
  { "name": "Okwu", "post_code": "440102" },
  { "name": "Umuajata", "post_code": "440102" },
  { "name": "Umudere", "post_code": "440102" },
  { "name": "Umuntu", "post_code": "440102" },
  { "name": "Umuobia", "post_code": "440102" },
  { "name": "Umuoparaozara", "post_code": "440102" },
  { "name": "Amizi", "post_code": "440111" },
  { "name": "Awomukwu", "post_code": "440111" },
  { "name": "Azuiyi", "post_code": "440111" },
  { "name": "Iziugwu-Arizi", "post_code": "440111" },
  { "name": "Nchara", "post_code": "440111" },
  { "name": "Obohia-Okike", "post_code": "440111" },
  { "name": "Oloko", "post_code": "440111" },
  { "name": "Umugo", "post_code": "440111" },
  { "name": "Usaka-Eleogu", "post_code": "440111" },
  { "name": "Orori", "post_code": "440113" },
  { "name": "Umuagum", "post_code": "440113" },
  { "name": "Umuegwu-Okpala", "post_code": "440113" },
  { "name": "Umulemeze", "post_code": "440113" },
  { "name": "Umuosu", "post_code": "440113" },
  { "name": "Abam", "post_code": "440104" },
  { "name": "Akmibo", "post_code": "440104" },
  { "name": "Amuzu", "post_code": "440104" },
  { "name": "Avodim", "post_code": "440104" },
  { "name": "Eziama", "post_code": "440104" },
  { "name": "Ipupe", "post_code": "440104" },
  { "name": "Laguru", "post_code": "440104" },
  { "name": "Mgbarakuma", "post_code": "440104" },
  { "name": "Nsirimo", "post_code": "440104" },
  { "name": "Nsukwe", "post_code": "440104" },
  { "name": "Umosu", "post_code": "440104" },
  { "name": "Umuako", "post_code": "440104" },
  { "name": "Umuogu", "post_code": "440104" },
  { "name": "Amaogwugwu", "post_code": "440114" },
  { "name": "Ihige Ude", "post_code": "440114" },
  { "name": "Isingwu-Ofeme", "post_code": "440114" },
  { "name": "Mbata-Ofeme", "post_code": "440114" },
  { "name": "Okwu", "post_code": "440114" },
  { "name": "Ubaum", "post_code": "440114" },
  { "name": "Udealamaocha", "post_code": "440114" },
  { "name": "Uhuala-Ofeiyi", "post_code": "440114" },
  { "name": "Umuagu", "post_code": "440114" },
  { "name": "Umuda", "post_code": "440114" },
  { "name": "Umudiawa", "post_code": "440114" },
  { "name": "Umueze", "post_code": "440114" },
  { "name": "Umuezeama", "post_code": "440114" },
  { "name": "Umuezeaoma", "post_code": "440114" },
  { "name": "Umuezikw-Ofeme", "post_code": "440114" },
  { "name": "Umuhu", "post_code": "440114" },
  { "name": "Umuogba", "post_code": "440114" },
  { "name": "Amachara", "post_code": "440105" },
  { "name": "Amankwo", "post_code": "440105" },
  { "name": "Ehume", "post_code": "440105" },
  { "name": "Ekenobizi", "post_code": "440105" },
  { "name": "Exeleke", "post_code": "440105" },
  { "name": "Ogbodimbe", "post_code": "440105" },
  { "name": "Ogbodiukwu", "post_code": "440105" },
  { "name": "Ohiaocha", "post_code": "440105" },
  { "name": "Omaegwu", "post_code": "440105" },
  { "name": "Umuabli", "post_code": "440105" },
  { "name": "Umuihe", "post_code": "440105" },
  { "name": "Umunwanwa", "post_code": "440105" },
  { "name": "Umuoba", "post_code": "440105" },
  { "name": "STREETS", "post_code": "Postcode" },
  { "name": "Aba Rd.", "post_code": "440221" },
  { "name": "Akanu Ibiam St.", "post_code": "440221" },
  { "name": "Cementry Rd.", "post_code": "440221" },
  { "name": "Factory Rd.", "post_code": "440221" },
  { "name": "Library Avn.", "post_code": "440221" },
  { "name": "Market Rd.", "post_code": "440221" },
  { "name": "Okpara Avn.", "post_code": "440221" },
  { "name": "Timber Rd.", "post_code": "440221" },
  { "name": "Abam St.", "post_code": "440231" },
  { "name": "Asaba St.", "post_code": "440231" },
  { "name": "Igbere St.", "post_code": "440231" },
  { "name": "Nkwere St.", "post_code": "440231" },
  { "name": "Olokoro St.", "post_code": "440231" },
  { "name": "Orie Ugba", "post_code": "440231" },
  { "name": "Abiriba St.", "post_code": "440234" },
  { "name": "Bende Rd.", "post_code": "440234" },
  { "name": "Bonny St.", "post_code": "440234" },
  { "name": "Cameroon St.", "post_code": "440234" },
  { "name": "Crowther St.", "post_code": "440234" },
  { "name": "Eket St.", "post_code": "440234" },
  { "name": "Item St.", "post_code": "440234" },
  { "name": "Lagos St.", "post_code": "440234" },
  { "name": "Ohafia St.", "post_code": "440234" },
  { "name": "Okwulehe St.", "post_code": "440234" },
  { "name": "Umuwaya Rd.", "post_code": "440234" },
  { "name": "Warri St.", "post_code": "440234" },
  { "name": "Accra Ln.", "post_code": "440235" },
  { "name": "Ahoda St.", "post_code": "440235" },
  { "name": "Alayi St.", "post_code": "440235" },
  { "name": "Alor St.", "post_code": "440235" },
  { "name": "Club Rd.", "post_code": "440235" },
  { "name": "Mechanic Shed", "post_code": "440235" },
  { "name": "Mission Hill Rd.", "post_code": "440235" },
  { "name": "Nsukka Ln.", "post_code": "440235" },
  { "name": "Oba St.", "post_code": "440235" },
  { "name": "Oguta St.", "post_code": "440235" },
  { "name": "Okpara Round about (Commercial Layout)", "post_code": "440235" },
  { "name": "BCA Rd.", "post_code": "440233" },
  { "name": "Adelabu St.", "post_code": "440233" },
  { "name": "Afara St.", "post_code": "440233" },
  { "name": "Aguyi Ironsi Layout", "post_code": "440233" },
  { "name": "Amokwe St.", "post_code": "440233" },
  { "name": "Awkuzu Ln.", "post_code": "440233" },
  { "name": "Awolowo St.", "post_code": "440233" },
  { "name": "Awuka St.", "post_code": "440233" },
  { "name": "Azikiwe Rd.", "post_code": "440233" },
  { "name": "Clifford Rd.", "post_code": "440233" },
  { "name": "Ezeakomors St.", "post_code": "440233" },
  { "name": "Ezeogbulafor St.", "post_code": "440233" },
  { "name": "Finbarrs Rd.", "post_code": "440233" },
  { "name": "Igbo St.", "post_code": "440233" },
  { "name": "Ikot Ekpene Rd.", "post_code": "440233" },
  { "name": "Imo Ln.", "post_code": "440233" },
  { "name": "Isuochi St.", "post_code": "440233" },
  { "name": "Jos St.", "post_code": "440233" },
  { "name": "Kaduna St.", "post_code": "440233" },
  { "name": "Kano St.", "post_code": "440233" },
  { "name": "Macolay St.", "post_code": "440233" },
  { "name": "Nkporo St.", "post_code": "440233" },
  { "name": "Ogoja Ln.", "post_code": "440233" },
  { "name": "Ojike St.", "post_code": "440233" },
  { "name": "Ossah Rd.", "post_code": "440233" },
  { "name": "Palm Ln.", "post_code": "440233" },
  { "name": "Provincial Layout (Secretariat) Ln.", "post_code": "440233" },
  { "name": "Rivers", "post_code": "440233" },
  { "name": "School Rd.", "post_code": "440233" },
  { "name": "Umuobasi St.", "post_code": "440233" },
  { "name": "Uwalaka Rd.", "post_code": "440233" },
  { "name": "Uyo St.", "post_code": "440233" },
  { "name": "Hill Top St.", "post_code": "440232" },
  { "name": "Ekwuruke St.", "post_code": "440232" },
  { "name": "Ngwa St.", "post_code": "440232" },
  { "name": "Oboro St.", "post_code": "440232" },
  { "name": "Obowa St.", "post_code": "440232" },
  { "name": "Oji River St.", "post_code": "440232" },
  { "name": "Omuopara St.", "post_code": "440232" },
  { "name": "Ozuitem St.", "post_code": "440232" },
  { "name": "Udi St.", "post_code": "440232" },
  { "name": "Umueze St.", "post_code": "440232" },
  { "name": "Ariaria", "post_code": "453113" },
  { "name": "Asamoka", "post_code": "453113" },
  { "name": "Mbutu-Isiahia", "post_code": "453113" },
  { "name": "Mbutu-Umuga", "post_code": "453113" },
  { "name": "Oberete", "post_code": "453113" },
  { "name": "Ogbu", "post_code": "453113" },
  { "name": "Umudi", "post_code": "453113" },
  { "name": "Umuejijie", "post_code": "453113" },
  { "name": "Umuidigha", "post_code": "453113" },
  { "name": "Umungbede", "post_code": "453113" },
  { "name": "Umuocheala", "post_code": "453113" },
  { "name": "Umuojima-Ogbu", "post_code": "453113" },
  { "name": "Umuojima-Okereke", "post_code": "453113" },
  { "name": "Umuozo", "post_code": "453113" },
  { "name": "Amaogwuawu", "post_code": "453115" },
  { "name": "Amapu", "post_code": "453115" },
  { "name": "Amuzu", "post_code": "453115" },
  { "name": "Ibeku", "post_code": "453115" },
  { "name": "Mbutunta", "post_code": "453115" },
  { "name": "Umuagwu", "post_code": "453115" },
  { "name": "Umuihima", "post_code": "453115" },
  { "name": "Umuihioma", "post_code": "453115" },
  { "name": "Umuiimo-Osisiasa", "post_code": "453115" },
  { "name": "Umuimo-Amaogwuawu", "post_code": "453115" },
  { "name": "Umuimo-Egbelu", "post_code": "453115" },
  { "name": "Umuobasi", "post_code": "453115" },
  { "name": "Obiekwesu", "post_code": "453114" },
  { "name": "Okpuala-Aro", "post_code": "453114" },
  { "name": "Umuarakpa", "post_code": "453114" },
  { "name": "Umuejie", "post_code": "453114" },
  { "name": "Umugwua", "post_code": "453114" },
  { "name": "Umukaa", "post_code": "453114" },
  { "name": "Umukai", "post_code": "453114" },
  { "name": "Umuohia", "post_code": "453114" },
  { "name": "Umuonyenkwu", "post_code": "453114" },
  { "name": "Umuotuo", "post_code": "453114" },
  { "name": "Amauzu", "post_code": "453112" },
  { "name": "Mgboko-Umuete", "post_code": "453112" },
  { "name": "Umuaba", "post_code": "453112" },
  { "name": "Umuara", "post_code": "453112" },
  { "name": "Umuga", "post_code": "453112" },
  { "name": "Umuobo", "post_code": "453112" },
  { "name": "Uratta / Amaekpu", "post_code": "453112" },
  { "name": "Akpa", "post_code": "453116" },
  { "name": "Amaiyi", "post_code": "453116" },
  { "name": "Amankwu", "post_code": "453116" },
  { "name": "Amaugha", "post_code": "453116" },
  { "name": "Okpalaukwu", "post_code": "453116" },
  { "name": "Umuaja", "post_code": "453116" },
  { "name": "Umuenyikwu", "post_code": "453116" },
  { "name": "Umugala", "post_code": "453116" },
  { "name": "Umuncheagu", "post_code": "453116" },
  { "name": "Umunpata", "post_code": "453116" },
  { "name": "Umuobilaha", "post_code": "453116" },
  { "name": "Umuohia", "post_code": "453116" },
  { "name": "Umuokerete", "post_code": "453116" },
  { "name": "Amapu-Ighengwo", "post_code": "453111" },
  { "name": "Egbede", "post_code": "453111" },
  { "name": "Egbede-Owo", "post_code": "453111" },
  { "name": "Egbelu-Owo", "post_code": "453111" },
  { "name": "Ibibi", "post_code": "453111" },
  { "name": "Obuzor", "post_code": "453111" },
  { "name": "Okpokoroala", "post_code": "453111" },
  { "name": "Okpokotoala", "post_code": "453111" },
  { "name": "Umu-Ocho", "post_code": "453111" },
  { "name": "Umuaduru", "post_code": "453111" },
  { "name": "Umuagbara", "post_code": "453111" },
  { "name": "Umueji", "post_code": "453111" },
  { "name": "Umueke", "post_code": "453111" },
  { "name": "Umueze", "post_code": "453111" },
  { "name": "Umuigwe", "post_code": "453111" },
  { "name": "Umuikea", "post_code": "453111" },
  { "name": "Umuodu-Ehichie", "post_code": "453111" },
  { "name": "Umuokoroegbu", "post_code": "453111" },
  { "name": "Alaoji", "post_code": "453120" },
  { "name": "Amaokpu-Umuitiri", "post_code": "453120" },
  { "name": "Amaorji", "post_code": "453120" },
  { "name": "Amapu-Ukebe", "post_code": "453120" },
  { "name": "Amapu-Umodo", "post_code": "453120" },
  { "name": "Amavo", "post_code": "453120" },
  { "name": "Amuzu-Amaikoro", "post_code": "453120" },
  { "name": "Asa-Amuhi", "post_code": "453120" },
  { "name": "Asa-Nnentu", "post_code": "453120" },
  { "name": "Asa-Oberie", "post_code": "453120" },
  { "name": "Asa-Umunka", "post_code": "453120" },
  { "name": "Asaumuakwa", "post_code": "453120" },
  { "name": "Ngwaiyiekwe", "post_code": "453120" },
  { "name": "Nngwa", "post_code": "453120" },
  { "name": "Obegu", "post_code": "453120" },
  { "name": "Obuzor", "post_code": "453120" },
  { "name": "Osusu – Aku", "post_code": "453120" },
  { "name": "Ozaa-Umuebukwu", "post_code": "453120" },
  { "name": "Ukebe", "post_code": "453120" },
  { "name": "Umuaja", "post_code": "453120" },
  { "name": "Umuama-Oke", "post_code": "453120" },
  { "name": "Umuchewu", "post_code": "453120" },
  { "name": "Umugo", "post_code": "453120" },
  { "name": "Umule-Osoamadi", "post_code": "453120" },
  { "name": "Umunkama", "post_code": "453120" },
  { "name": "Umuodo", "post_code": "453120" },
  { "name": "obingwu", "post_code": "452116" },
  { "name": "omuma-Uzor", "post_code": "452116" },
  { "name": "umuekechi", "post_code": "452116" },
  { "name": "umuezeke", "post_code": "452116" },
  { "name": "umuikukor", "post_code": "452116" },
  { "name": "Aparazu", "post_code": "452114" },
  { "name": "Obiahia", "post_code": "452114" },
  { "name": "Obiawom", "post_code": "452114" },
  { "name": "Ogwe", "post_code": "452114" },
  { "name": "Okpokoro-Ala", "post_code": "452114" },
  { "name": "Ozanta", "post_code": "452114" },
  { "name": "Ozatta", "post_code": "452114" },
  { "name": "Ugwati", "post_code": "452114" },
  { "name": "Umuabali", "post_code": "452114" },
  { "name": "Umuachakwu", "post_code": "452114" },
  { "name": "Umuachoke", "post_code": "452114" },
  { "name": "Umuada", "post_code": "452114" },
  { "name": "Umuadata", "post_code": "452114" },
  { "name": "Umuaebo", "post_code": "452114" },
  { "name": "Umuakirika", "post_code": "452114" },
  { "name": "Umuanyika", "post_code": "452114" },
  { "name": "Umuazuta", "post_code": "452114" },
  { "name": "Umuechke", "post_code": "452114" },
  { "name": "Umukwuru", "post_code": "452114" },
  { "name": "Umunkpulocha-", "post_code": "452114" },
  { "name": "Umuodeke", "post_code": "452114" },
  { "name": "Umuogwu", "post_code": "452114" },
  { "name": "Umuololo", "post_code": "452114" },
  { "name": "Umura", "post_code": "452114" },
  { "name": "Ezebudele", "post_code": "452112" },
  { "name": "Obehie", "post_code": "452112" },
  { "name": "Obiakpu", "post_code": "452112" },
  { "name": "Obibor", "post_code": "452112" },
  { "name": "Obuzor", "post_code": "452112" },
  { "name": "Umuahala", "post_code": "452112" },
  { "name": "Umuajoha", "post_code": "452112" },
  { "name": "Umuelechi", "post_code": "452112" },
  { "name": "Etitiuzo-Owaza", "post_code": "452113" },
  { "name": "Eze Ugwu-Owaza", "post_code": "452113" },
  { "name": "Owaza", "post_code": "452113" },
  { "name": "Umoekekewekwe-", "post_code": "452113" },
  { "name": "Umu-Acharaba", "post_code": "452113" },
  { "name": "Umuagala-Owaza", "post_code": "452113" },
  { "name": "Umuakata-Owaza", "post_code": "452113" },
  { "name": "Umudobia", "post_code": "452113" },
  { "name": "Umuegwusi-Owaza", "post_code": "452113" },
  { "name": "Umueme-Owaza", "post_code": "452113" },
  { "name": "Umungbeje-Owaza", "post_code": "452113" },
  { "name": "Umungede-Owaza", "post_code": "452113" },
  { "name": "Umunkpulu-", "post_code": "452113" },
  { "name": "Umuohiata-Umudobia", "post_code": "452113" },
  { "name": "Umuokerete-", "post_code": "452113" },
  { "name": "Umuokwolu-Owaza", "post_code": "452113" },
  { "name": "Umuololo-Owaza", "post_code": "452113" },
  { "name": "Umuosakara-", "post_code": "452113" },
  { "name": "Umuoyeke-Owaza", "post_code": "452113" },
  { "name": "Amaukwu", "post_code": "452115" },
  { "name": "Ikenyi", "post_code": "452115" },
  { "name": "Ogwati", "post_code": "452115" },
  { "name": "Umuakwa", "post_code": "452115" },
  { "name": "Umuguru 1", "post_code": "452115" },
  { "name": "Umuika", "post_code": "452115" },
  { "name": "Umuinwere", "post_code": "452115" },
  { "name": "Umunduru", "post_code": "452115" },
  { "name": "Umuoka", "post_code": "452115" },
  { "name": "Umuopere", "post_code": "452115" },
  { "name": "Umuopere-Kamanu", "post_code": "452115" },
  { "name": "Oborhia", "post_code": "452109" },
  { "name": "Oke-Ikpe", "post_code": "452109" },
  { "name": "Owo-Ala", "post_code": "452109" },
  { "name": "Owo-Asa", "post_code": "452109" },
  { "name": "Umuadienwe", "post_code": "452109" },
  { "name": "Umuebulugwu", "post_code": "452109" },
  { "name": "Umuiku", "post_code": "452109" },
  { "name": "Umunteke", "post_code": "452109" },
  { "name": "Obalu", "post_code": "452110" },
  { "name": "Obiga", "post_code": "452110" },
  { "name": "Umuituru", "post_code": "452110" },
  { "name": "Umukalu", "post_code": "452110" },
  { "name": "Umuokwo", "post_code": "452110" },
  { "name": "Umuorie", "post_code": "452110" },
  { "name": "Akpa-Mbator", "post_code": "453108" },
  { "name": "Amairingbua-Ovom", "post_code": "453108" },
  { "name": "Amasa-Ovom", "post_code": "453108" },
  { "name": "Asumini-Stranger", "post_code": "452107" },
  { "name": "Azumini", "post_code": "452107" },
  { "name": "Ohukwu", "post_code": "452107" },
  { "name": "Okoloma Quarters", "post_code": "452107" },
  { "name": "Umunta", "post_code": "452107" },
  { "name": "Amakam", "post_code": "452104" },
  { "name": "Amaobu", "post_code": "452104" },
  { "name": "Amorji", "post_code": "452104" },
  { "name": "Mkpukpator", "post_code": "452104" },
  { "name": "Mlpukpuokwo", "post_code": "452104" },
  { "name": "Ogbunga", "post_code": "452104" },
  { "name": "Ohaogwe", "post_code": "452104" },
  { "name": "Okotoko", "post_code": "452104" },
  { "name": "Eti", "post_code": "452108" },
  { "name": "Mkpujakere", "post_code": "452108" },
  { "name": "Mkpuohia-Oba", "post_code": "452108" },
  { "name": "Obeaku", "post_code": "452108" },
  { "name": "Obunku", "post_code": "452108" },
  { "name": "Ohambele", "post_code": "452108" },
  { "name": "Ohanso", "post_code": "452108" },
  { "name": "Abaki", "post_code": "452105" },
  { "name": "Akanu", "post_code": "452105" },
  { "name": "Mkpukpuaja", "post_code": "452105" },
  { "name": "Mkpukpule", "post_code": "452105" },
  { "name": "Mkpukpuoha", "post_code": "452105" },
  { "name": "Obuozu", "post_code": "452105" },
  { "name": "Ogbuagu", "post_code": "452105" },
  { "name": "Ohaobu", "post_code": "452105" },
  { "name": "Umuogor", "post_code": "452105" },
  { "name": "Abam-Nsulu", "post_code": "453109" },
  { "name": "Abam-Nsuluamapa", "post_code": "453109" },
  { "name": "Alaoji", "post_code": "453109" },
  { "name": "Amapu", "post_code": "453109" },
  { "name": "Amauvuru", "post_code": "453109" },
  { "name": "Amorji", "post_code": "453109" },
  { "name": "Ehere", "post_code": "453109" },
  { "name": "Eziama", "post_code": "453109" },
  { "name": "Iferefe", "post_code": "453109" },
  { "name": "Ikpakiri", "post_code": "453109" },
  { "name": "Ntigha", "post_code": "453109" },
  { "name": "Obeala", "post_code": "453109" },
  { "name": "Obete-Nchima", "post_code": "453109" },
  { "name": "Ohanze", "post_code": "453109" },
  { "name": "Okpuama-Uku", "post_code": "453109" },
  { "name": "Okuenyi", "post_code": "453109" },
  { "name": "Osusu Amaukwa", "post_code": "453109" },
  { "name": "Owohia", "post_code": "453109" },
  { "name": "Umuafor", "post_code": "453109" },
  { "name": "Umuaguma", "post_code": "453109" },
  { "name": "Umuali", "post_code": "453109" },
  { "name": "Umuguru", "post_code": "453109" },
  { "name": "Umuochoi", "post_code": "453109" },
  { "name": "Umuogele", "post_code": "453109" },
  { "name": "Umuokahia", "post_code": "453109" },
  { "name": "Umuokoroata", "post_code": "453109" },
  { "name": "Umuola Egbelu", "post_code": "453109" },
  { "name": "Umuoruwu", "post_code": "453109" },
  { "name": "Ikiruamike", "post_code": "452103" },
  { "name": "Obegu", "post_code": "452103" },
  { "name": "Obija", "post_code": "452103" },
  { "name": "Obosau", "post_code": "452103" },
  { "name": "Obozu", "post_code": "452103" },
  { "name": "Osuogwo", "post_code": "452103" },
  { "name": "Ukebe", "post_code": "452103" },
  { "name": "Umise", "post_code": "452103" },
  { "name": "Umuaelaki", "post_code": "452103" },
  { "name": "Umumbukwa", "post_code": "452103" },
  { "name": "Umuodo", "post_code": "452103" },
  { "name": "Umuogazi", "post_code": "452103" },
  { "name": "Umuokara", "post_code": "452103" },
  { "name": "Umuopara", "post_code": "452103" },
  { "name": "Akanu", "post_code": "452106" },
  { "name": "Akirika – Nta", "post_code": "452106" },
  { "name": "Akirika – Obu", "post_code": "452106" },
  { "name": "Akirika – Uku", "post_code": "452106" },
  { "name": "Akwete", "post_code": "452101" },
  { "name": "Ohandu", "post_code": "452101" },
  { "name": "Umuibe", "post_code": "452101" },
  { "name": "City", "post_code": "Postcode" },
  { "name": "Abayi", "post_code": "453120" },
  { "name": "Obegu", "post_code": "453120" },
  { "name": "Akanu", "post_code": "453120" },
  { "name": "Obuzor", "post_code": "453120" },
  { "name": "Alaoji", "post_code": "453120" },
  { "name": "Osusu – Aku", "post_code": "453120" },
  { "name": "Amaokpu-Umuitiri", "post_code": "453120" },
  { "name": "Ozaa-Umuebukwu", "post_code": "453120" },
  { "name": "Amaorji", "post_code": "453120" },
  { "name": "Ukebe", "post_code": "453120" },
  { "name": "Amapu-Ukebe", "post_code": "453120" },
  { "name": "Umuaja", "post_code": "453120" },
  { "name": "Amapu-Umodo", "post_code": "453120" },
  { "name": "Umuama-Oke", "post_code": "453120" },
  { "name": "Amavo", "post_code": "453120" },
  { "name": "Umuchekwu", "post_code": "453120" },
  { "name": "Amuzu-Amaikoro", "post_code": "453120" },
  { "name": "Umugo", "post_code": "453120" },
  { "name": "Asa-Amuhi", "post_code": "453120" },
  { "name": "Umule-Osoamadi", "post_code": "453120" },
  { "name": "Obegu", "post_code": "453120" },
  { "name": "Obuzor", "post_code": "453120" },
  { "name": "Osusu-Aku", "post_code": "453120" },
  { "name": "Ozaa-Umuebukwu", "post_code": "453120" },
  { "name": "Amaorji", "post_code": "453120" },
  { "name": "Ukebe", "post_code": "453120" },
  { "name": "Amapu-Ukebe", "post_code": "453120" },
  { "name": "Umuaja", "post_code": "453120" },
  { "name": "Amapu-Umodo", "post_code": "453120" },
  { "name": "Umuama-Oke", "post_code": "453120" },
  { "name": "Amavo", "post_code": "453120" },
  { "name": "Umuchewu", "post_code": "453120" },
  { "name": "Amuzu-Amaikoro", "post_code": "453120" },
  { "name": "Umugo", "post_code": "453120" },
  { "name": "Asa-Amuhi", "post_code": "453120" },
  { "name": "Umule-Osoamadi", "post_code": "453120" },
  { "name": "Asa-Nnentu", "post_code": "453120" },
  { "name": "Umunkama", "post_code": "453120" },
  { "name": "Asa-Oberie", "post_code": "453120" },
  { "name": "Amaelen", "post_code": "441104" },
  { "name": "Amaja", "post_code": "441104" },
  { "name": "Amaohuru", "post_code": "441104" },
  { "name": "Umuagu", "post_code": "441104" },
  { "name": "Umuakwua", "post_code": "441104" },
  { "name": "Amanyanwu", "post_code": "441107" },
  { "name": "Amidi", "post_code": "441107" },
  { "name": "Amokwe", "post_code": "441107" },
  { "name": "Eziama", "post_code": "441107" },
  { "name": "Ogwahia", "post_code": "441107" },
  { "name": "Onuzu", "post_code": "441107" },
  { "name": "Agbonelu", "post_code": "441101" },
  { "name": "Ahaba-Ehuma", "post_code": "441101" },
  { "name": "Amaeke", "post_code": "441101" },
  { "name": "Amahia/Amaogudu", "post_code": "441101" },
  { "name": "Amiyi Ahaba", "post_code": "441101" },
  { "name": "Anume", "post_code": "441101" },
  { "name": "Eluama", "post_code": "441101" },
  { "name": "Ihenzu", "post_code": "441101" },
  { "name": "Ihiokwe", "post_code": "441101" },
  { "name": "Mbalano", "post_code": "441101" },
  { "name": "Obayi", "post_code": "441101" },
  { "name": "Ohonja", "post_code": "441101" },
  { "name": "Ohoroho", "post_code": "441101" },
  { "name": "Amaise", "post_code": "441106" },
  { "name": "Amaobu-Nkuma", "post_code": "441106" },
  { "name": "Amaobuaja", "post_code": "441106" },
  { "name": "Ekebe", "post_code": "441106" },
  { "name": "Obinohia", "post_code": "441106" },
  { "name": "Obodo", "post_code": "441106" },
  { "name": "Uloma", "post_code": "441106" },
  { "name": "Umuama", "post_code": "441106" },
  { "name": "Umuebere Aja", "post_code": "441106" },
  { "name": "Umuebere Nkuma", "post_code": "441106" },
  { "name": "Umuemoko", "post_code": "441106" },
  { "name": "Umuokogbuo", "post_code": "441106" },
  { "name": "Akpukpa", "post_code": "441108" },
  { "name": "Isunabo", "post_code": "441108" },
  { "name": "Ndundu", "post_code": "441108" },
  { "name": "Ngodo-Ugwu", "post_code": "441108" },
  { "name": "Nvururu", "post_code": "441108" },
  { "name": "Ugiri", "post_code": "441108" },
  { "name": "Umuamara", "post_code": "441108" },
  { "name": "Acha", "post_code": "441103" },
  { "name": "Amaibo", "post_code": "441103" },
  { "name": "Amaiyi-obinohia", "post_code": "441103" },
  { "name": "Amaiyi-Uhu", "post_code": "441103" },
  { "name": "Nunya", "post_code": "441103" },
  { "name": "Acha", "post_code": "441102" },
  { "name": "Amaba-Oboro", "post_code": "441102" },
  { "name": "Amaogodu", "post_code": "441102" },
  { "name": "Amokwe", "post_code": "441102" },
  { "name": "Amuta", "post_code": "441102" },
  { "name": "Echiele", "post_code": "441102" },
  { "name": "Ikpa", "post_code": "441102" },
  { "name": "Ndiagidi", "post_code": "441102" },
  { "name": "Ndiohia", "post_code": "441102" },
  { "name": "Otampa", "post_code": "441102" },
  { "name": "Umuakpumsi", "post_code": "441102" },
  { "name": "Umuansuo", "post_code": "441102" },
  { "name": "Umuohoroko", "post_code": "441102" },
  { "name": "Amawo", "post_code": "441105" },
  { "name": "Eziama", "post_code": "441105" },
  { "name": "Ohaukali", "post_code": "441105" },
  { "name": "Ugwuntu", "post_code": "441105" },
  { "name": "Umuezebele", "post_code": "441105" },
  { "name": "Umuihu", "post_code": "441105" },
  { "name": "Umura", "post_code": "441105" },
  { "name": "Street/Location", "post_code": "Postal Code" },
  { "name": "Amachi", "post_code": "451102" },
  { "name": "Aro-Achara", "post_code": "451102" },
  { "name": "Eziam", "post_code": "451102" },
  { "name": "Ohuhu", "post_code": "451102" },
  { "name": "Umuakwu", "post_code": "451102" },
  { "name": "Umuosinyike", "post_code": "451102" },
  { "name": "Usaka-Umuofo", "post_code": "451102" },
  { "name": "Street/Location", "post_code": "Postal code" },
  { "name": "Imerem I", "post_code": "451106" },
  { "name": "Imerem II", "post_code": "451106" },
  { "name": "Umokuza", "post_code": "451106" },
  { "name": "Umualata", "post_code": "451106" },
  { "name": "Umuebeyi", "post_code": "451106" },
  { "name": "Umunka", "post_code": "451106" },
  { "name": "Umuobia", "post_code": "451106" },
  { "name": "Umuodoala", "post_code": "451106" },
  { "name": "Umuokatu", "post_code": "451106" },
  { "name": "Umuokwa", "post_code": "451106" },
  { "name": "Avoh", "post_code": "451105" },
  { "name": "Egbelu", "post_code": "451105" },
  { "name": "Okpuala", "post_code": "451105" },
  { "name": "Oriala-Ugaa", "post_code": "451105" },
  { "name": "Umuekpe", "post_code": "451105" },
  { "name": "Umunkalu", "post_code": "451105" },
  { "name": "Umuogele", "post_code": "451105" },
  { "name": "Location", "post_code": "Postal code" },
  { "name": "Amaogwugwu", "post_code": "451104" },
  { "name": "Egbelu-Ihie", "post_code": "451104" },
  { "name": "Umunachi", "post_code": "451104" },
  { "name": "Umuode", "post_code": "451104" },
  { "name": "Location", "post_code": "Postal code" },
  { "name": "Abayi", "post_code": "451101" },
  { "name": "Ahiaba Okpuala", "post_code": "451101" },
  { "name": "Ahiaba Ubi", "post_code": "451101" },
  { "name": "Amaorji", "post_code": "451101" },
  { "name": "Amapu-Ngwa", "post_code": "451101" },
  { "name": "Amuzu", "post_code": "451101" },
  { "name": "Iheoji", "post_code": "451101" },
  { "name": "Ihie", "post_code": "451101" },
  { "name": "Obikabia", "post_code": "451101" },
  { "name": "Okpuala Ngwa", "post_code": "451101" },
  { "name": "Osusu", "post_code": "451101" },
  { "name": "Sumudima", "post_code": "451101" },
  { "name": "Location", "post_code": "Postal Code" },
  { "name": "Agburuike", "post_code": "451107" },
  { "name": "Ezial – Nsulu", "post_code": "451107" },
  { "name": "Ikputu", "post_code": "451107" },
  { "name": "Mbubo", "post_code": "451107" },
  { "name": "Nbawsi", "post_code": "451107" },
  { "name": "Umuosu", "post_code": "451107" },
  { "name": "Location", "post_code": "Postal code" },
  { "name": "Amaekpu", "post_code": "451103" },
  { "name": "Amapu", "post_code": "451103" },
  { "name": "Amaputa", "post_code": "451103" },
  { "name": "Eziama-Uratta", "post_code": "451103" },
  { "name": "Ichi", "post_code": "451103" },
  { "name": "Umarandu-Uratta", "post_code": "451103" },
  { "name": "Idima", "post_code": "442106" },
  { "name": "Itum", "post_code": "442106" },
  { "name": "Ndi Agwu", "post_code": "442106" },
  { "name": "Ndi Ebelagu", "post_code": "442106" },
  { "name": "Ndi Ibom", "post_code": "442106" },
  { "name": "Ndi Ite", "post_code": "442106" },
  { "name": "Ndi Nsi", "post_code": "442106" },
  { "name": "Ugwu Aduenyi", "post_code": "442106" },
  { "name": "Agbagwu", "post_code": "442101" },
  { "name": "Amangwu", "post_code": "442101" },
  { "name": "Amasa", "post_code": "442101" },
  { "name": "Amoba", "post_code": "442101" },
  { "name": "Amukwa", "post_code": "442101" },
  { "name": "Amuvi", "post_code": "442101" },
  { "name": "Asaga", "post_code": "442101" },
  { "name": "Atani", "post_code": "442101" },
  { "name": "Ibom", "post_code": "442101" },
  { "name": "Obinkita", "post_code": "442101" },
  { "name": "Isinkpu", "post_code": "442101" },
  { "name": "Oror", "post_code": "442101" },
  { "name": "Ugbo", "post_code": "442101" },
  { "name": "Ugwu Avor", "post_code": "442101" },
  { "name": "Ugwuakuma", "post_code": "442101" },
  { "name": "Ujari", "post_code": "442101" },
  { "name": "Ulughangwu", "post_code": "442101" },
  { "name": "Aboru", "post_code": "442104" },
  { "name": "Achara", "post_code": "442104" },
  { "name": "Agbor", "post_code": "442104" },
  { "name": "Amaetiti", "post_code": "442104" },
  { "name": "Amafia", "post_code": "442104" },
  { "name": "Amamiri", "post_code": "442104" },
  { "name": "Amiyi", "post_code": "442104" },
  { "name": "Atan", "post_code": "442104" },
  { "name": "Ebemofia", "post_code": "442104" },
  { "name": "Ndiokpo", "post_code": "442104" },
  { "name": "Nkporo", "post_code": "442104" },
  { "name": "Obicihie", "post_code": "442104" },
  { "name": "Obinto", "post_code": "442104" },
  { "name": "Okpo", "post_code": "442104" },
  { "name": "Umuchiakuma", "post_code": "442104" },
  { "name": "Umuye", "post_code": "442104" },
  { "name": "Umuzomgbo", "post_code": "442104" },
  { "name": "Aba Isu", "post_code": "442103" },
  { "name": "Amachi", "post_code": "442103" },
  { "name": "Amakarama", "post_code": "442103" },
  { "name": "Amukabi", "post_code": "442103" },
  { "name": "Iheosu", "post_code": "442103" },
  { "name": "Obieze", "post_code": "442103" },
  { "name": "Obomime", "post_code": "442103" },
  { "name": "Amaelu", "post_code": "442107" },
  { "name": "Amaogbu", "post_code": "442107" },
  { "name": "Ameke", "post_code": "442107" },
  { "name": "Amuru", "post_code": "442107" },
  { "name": "Ndi Ebelagu", "post_code": "442107" },
  { "name": "Ndi Ememe", "post_code": "442107" },
  { "name": "Ndi Oji Ugwo", "post_code": "442107" },
  { "name": "Ndiebe", "post_code": "442107" },
  { "name": "Ndiya", "post_code": "442107" },
  { "name": "Oduenyi", "post_code": "442107" },
  { "name": "Ozu Abam", "post_code": "442107" },
  { "name": "Ahuma", "post_code": "442105" },
  { "name": "Atan", "post_code": "442105" },
  { "name": "Eziafor", "post_code": "442105" },
  { "name": "Ndi Oji", "post_code": "442105" },
  { "name": "Ndi Okereke", "post_code": "442105" },
  { "name": "Ndi Okorie", "post_code": "442105" },
  { "name": "Ndi Okwara", "post_code": "442105" },
  { "name": "location", "post_code": "Postcode" },
  { "name": "Abuma", "post_code": "442102" },
  { "name": "Amaebem", "post_code": "442102" },
  { "name": "Amaeke", "post_code": "442102" },
  { "name": "Amakpofia", "post_code": "442102" },
  { "name": "Amankwu", "post_code": "442102" },
  { "name": "Amasa", "post_code": "442102" },
  { "name": "Amodu", "post_code": "442102" },
  { "name": "Eziama", "post_code": "442102" },
  { "name": "Nkpakpi", "post_code": "442102" },
  { "name": "Obiagwulu", "post_code": "442102" },
  { "name": "Obiakana", "post_code": "442102" },
  { "name": "Obiene", "post_code": "442102" },
  { "name": "Obijoma", "post_code": "442102" },
  { "name": "Obiluoko", "post_code": "442102" },
  { "name": "Ohomja", "post_code": "442102" },
  { "name": "Ubila", "post_code": "442102" },
  { "name": "Ugwo-Ogo", "post_code": "442102" },
  { "name": "Ukwuakwu", "post_code": "442102" }
]
