[
  {
    "name": "Abia",
    "post_code": "http://postcode.com.ng/abia-state-lga-nigeria-postcode/"
  },
  {
    "name": "Adamawa",
    "post_code": "https://postcode.com.ng/21-local-government-areas-of-adamawa-state-nigeria/"
  },
  {
    "name": "Akwa Ibom",
    "post_code": "https://postcode.com.ng/local-government-areas-akwa-ibom-state-nigeria/"
  },
  {
    "name": "Anambra",
    "post_code": "https://postcode.com.ng/local-government-areas-anambra-state-nigeria/"
  },
  {
    "name": "Bauchi",
    "post_code": "https://postcode.com.ng/local-government-areas-bauchi-state-nigeria/"
  },
  {
    "name": "Bayelsa",
    "post_code": "https://postcode.com.ng/local-government-areas-bayelsa-state-nigeria/"
  },
  {
    "name": "Benue",
    "post_code": "https://postcode.com.ng/local-government-areas-beuue-state-nigeria/"
  },
  {
    "name": "Borno",
    "post_code": "https://postcode.com.ng/local-government-areas-borno-state-nigeria/"
  },
  {
    "name": "Cross River",
    "post_code": "https://postcode.com.ng/local-government-areas-cross-river-state-nigeria/"
  },
  {
    "name": "Delta",
    "post_code": "https://postcode.com.ng/local-government-areas-delta-state-nigeria/"
  },
  {
    "name": "Ebonyi",
    "post_code": "https://postcode.com.ng/local-government-areas-in-ebonyi-state/"
  },
  {
    "name": "Enugu",
    "post_code": "https://postcode.com.ng/local-government-areas-in-enugu-state/"
  },
  {
    "name": "Edo",
    "post_code": "https://postcode.com.ng/local-government-areas-in-edo-state/"
  },
  {
    "name": "Ekiti",
    "post_code": "https://postcode.com.ng/local-government-areas-in-ekiti-state/"
  },
  {
    "name": "Gombe",
    "post_code": "https://postcode.com.ng/local-government-areas-gombe-state/"
  },
  {
    "name": "Imo",
    "post_code": "https://postcode.com.ng/local-government-areas-imo-state/"
  },
  {
    "name": "Jigawa",
    "post_code": "https://postcode.com.ng/local-government-areas-in-jigawa-state/"
  },
  {
    "name": "Kaduna",
    "post_code": "https://postcode.com.ng/local-government-areas-in-kaduna-state/"
  },
  {
    "name": "Kano",
    "post_code": "https://postcode.com.ng/local-government-areas-in-kano-state/"
  },
  {
    "name": "Katsina",
    "post_code": "https://postcode.com.ng/local-government-areas-in-katsina-state/"
  },
  {
    "name": "Kebbi",
    "post_code": "https://postcode.com.ng/local-government-areas-in-kebbi-state/"
  },
  {
    "name": "Kogi",
    "post_code": "https://postcode.com.ng/local-government-areas-in-kogi-state/"
  },
  {
    "name": "Kwara",
    "post_code": "https://postcode.com.ng/local-government-areas-in-kwara-state/"
  },
  {
    "name": "Lagos",
    "post_code": "https://postcode.com.ng/lagos-zip-code-postal-code/"
  },
  {
    "name": "Nasarawa",
    "post_code": "https://postcode.com.ng/local-government-areas-in-nasarawa-state/"
  },
  {
    "name": "Niger",
    "post_code": "https://postcode.com.ng/all-25-local-government-areas-in-niger-state/"
  },
  {
    "name": "Ogun",
    "post_code": "https://postcode.com.ng/the-20-local-government-areas-in-ogun-state/"
  },
  {
    "name": "Ondo",
    "post_code": "https://postcode.com.ng/local-government-areas-ondo-state/"
  },
  {
    "name": "Osun",
    "post_code": "https://postcode.com.ng/local-government-areas-osun-state/"
  },
  {
    "name": "Oyo",
    "post_code": "https://postcode.com.ng/the-33-local-government-areas-in-oyo-state/"
  },
  {
    "name": "Plateau",
    "post_code": "https://postcode.com.ng/local-government-areas-plateau-state/"
  },
  {
    "name": "Rivers",
    "post_code": "https://postcode.com.ng/local-government-areas-rivers-state/"
  },
  {
    "name": "Sokoto",
    "post_code": "https://postcode.com.ng/local-government-areas-sokoto-state/"
  },
  {
    "name": "Taraba",
    "post_code": "https://postcode.com.ng/local-government-areas-taraba-state/"
  },
  {
    "name": "Yobe",
    "post_code": "https://postcode.com.ng/local-government-areas-yobe-state/"
  },
  {
    "name": "Zamfara",
    "post_code": "https://postcode.com.ng/local-government-areas-zamfara-state/"
  },
  {
    "name": "Abuja (FCT)",
    "post_code": "https://postcode.com.ng/abuja-zip-code-postal/"
  }
]
